# 2017  1 11 19 57 40.41  12.1930  141.1655   41.90 -2.00  0.00  0.00  0.00        224
Y85         7.620   1.000   P
Y07        13.410   1.000   P
Y07        22.640   1.000   S
Y06        18.090   1.000   P
Y06        30.420   1.000   S
Y09        13.600   1.000   P
Y09        22.930   1.000   S
Y03         8.590   1.000   P
Y03        15.360   1.000   S
# 2017  1 11 20  8 13.61  12.1763  141.5743   10.00 -2.00  0.00  0.00  0.00        225
Y85         5.390   1.000   P
Y07         5.400   1.000   P
Y09        10.530   1.000   P
Y09        12.430   1.000   S
Y40         6.410   1.000   P
# 2017  1 11 20 22 55.38  11.9353  141.4330    7.50 -2.00  0.00  0.00  0.00        226
Y03         6.650   1.000   P
Y85         5.630   1.000   P
Y40         7.210   1.000   P
Y09         9.440   1.000   P
Y09        11.490   1.000   S
# 2017  1 11 20 33 29.32  12.2725  141.3858   10.00 -2.00  0.00  0.00  0.00        227
Y03         7.410   1.000   P
Y03        13.590   1.000   S
Y85         1.710   1.000   P
Y40         1.730   1.000   P
# 2017  1 11 20 45 17.55  12.1425  141.4963    5.20 -2.00  0.00  0.00  0.00        228
Y03         8.430   1.000   P
Y03        14.730   1.000   S
Y85         6.680   1.000   P
Y07         7.490   1.000   P
Y06         8.450   1.000   P
Y40         8.460   1.000   P
# 2017  1 11 20 55  2.31  11.9988  141.5907    5.00 -2.00  0.00  0.00  0.00        229
Y03         8.690   1.000   P
Y03        15.160   1.000   S
Y85        10.720   1.000   P
Y06        10.740   1.000   P
Y09        15.920   1.000   S
Y40        11.710   1.000   P
# 2017  1 11 21 10 35.40  11.5355  141.8850   10.00 -2.00  0.00  0.00  0.00        230
Y03         7.360   1.000   P
Y03        13.830   1.000   S
Y40         1.960   1.000   P
Y09        12.120   1.000   P
# 2017  1 11 21 11  0.60  11.8723  142.1238    5.00 -2.00  0.00  0.00  0.00        231
Y07        12.420   1.000   P
Y07        21.590   1.000   S
Y06         4.020   1.000   S
Y09         9.470   1.000   P
Y09        18.960   1.000   S
Y03         6.810   1.000   P
Y03        13.250   1.000   S
# 2017  1 11 21 13  1.21  12.2498  141.1652    6.30 -2.00  0.00  0.00  0.00        232
Y07        12.660   1.000   P
Y07        22.390   1.000   S
Y06        20.820   1.000   P
Y06        30.700   1.000   S
Y03         8.560   1.000   P
Y03        14.720   1.000   S
# 2017  1 11 21 18  6.41  11.6867  141.4767   13.40 -2.00  0.00  0.00  0.00        233
Y85        12.640   1.000   P
Y09        11.060   1.000   S
Y06        12.660   1.000   P
Y06        18.680   1.000   S
Y40         9.580   1.000   P
# 2017  1 11 21 22  7.45  11.5020  140.5305   10.00 -2.00  0.00  0.00  0.00        234
Y09        41.770   1.000   S
Y07        31.690   1.000   P
Y06        36.200   1.000   P
# 2017  1 11 21 25 52.80  11.8598  141.6715   12.30 -2.00  0.00  0.00  0.00        235
Y03         9.180   1.000   P
Y03        15.140   1.000   S
Y07         8.260   1.000   P
Y40         8.270   1.000   P
# 2017  1 11 21 31 26.11  11.8495  141.8323   42.70 -2.00  0.00  0.00  0.00        236
Y09        13.150   1.000   S
Y03        12.960   1.000   P
Y85        11.180   1.000   P
Y06         7.890   1.000   P
Y40         8.890   1.000   P
# 2017  1 11 21 39 12.85  11.9993  141.4412   13.50 -2.00  0.00  0.00  0.00        237
Y09         6.190   1.000   P
Y03         3.160   1.000   P
Y03         8.500   1.000   S
Y85         7.140   1.000   P
Y07         7.140   1.000   P
Y06        10.960   1.000   P
Y40         7.170   1.000   P
# 2017  1 11 21 41 18.21  11.8233  141.8920   29.30 -2.00  0.00  0.00  0.00        238
Y09         6.560   1.000   P
Y09        11.250   1.000   S
Y85         7.700   1.000   P
Y07         9.720   1.000   P
Y07        10.710   1.000   S
Y06         5.790   1.000   P
Y40         6.790   1.000   P
# 2017  1 11 21 59 47.98  11.9407  140.0200   10.00 -2.00  0.00  0.00  0.00        239
Y03        41.370   1.000   S
Y09        32.990   1.000   P
Y07        33.010   1.000   P
Y06        37.020   1.000   P
# 2017  1 11 22 17 36.22  11.8373  141.1550   42.40 -2.00  0.00  0.00  0.00        240
Y85        11.810   1.000   P
Y03         6.940   1.000   P
Y03        13.000   1.000   S
Y07        11.780   1.000   P
Y07        20.000   1.000   S
Y06        28.300   1.000   S
Y09        11.770   1.000   P
Y09        21.120   1.000   S
Y40        17.750   1.000   P
# 2017  1 11 22 27 19.64  11.2500  141.0602   11.50 -2.00  0.00  0.00  0.00        241
Y85        18.380   1.000   P
Y07        22.310   1.000   P
Y07        30.780   1.000   S
Y06        38.470   1.000   S
Y09        31.400   1.000   S
Y40        17.710   1.000   P
Y03        17.350   1.000   P
Y03        23.480   1.000   S
# 2017  1 11 22 32 24.28  12.1067  141.4763   11.90 -2.00  0.00  0.00  0.00        242
Y03         4.740   1.000   P
Y03        11.250   1.000   S
Y85         5.730   1.000   P
Y07         6.770   1.000   P
Y06         5.750   1.000   P
Y09         6.770   1.000   P
Y40         6.760   1.000   P
# 2017  1 12  0  6 11.50  12.0722  141.5335   71.90 -2.00  0.00  0.00  0.00        243
Y03        12.470   1.000   P
Y03        13.880   1.000   S
Y09        12.500   1.000   P
Y09        22.110   1.000   S
Y85        13.530   1.000   P
Y07        21.930   1.000   S
# 2017  1 12  1 18 23.50  11.9100  141.6478   12.00 -2.00  0.00  0.00  0.00        244
Y03         8.480   1.000   P
Y03        14.320   1.000   S
Y07         7.530   1.000   P
Y06         7.830   1.000   P
# 2017  1 12  1 44 17.32  11.9443  141.9783   29.70 -2.00  0.00  0.00  0.00        245
Y09         8.670   1.000   P
Y03         9.690   1.000   P
Y03        14.790   1.000   S
Y85         8.690   1.000   P
Y07         8.700   1.000   P
Y06         4.700   1.000   P
Y40         8.670   1.000   P
# 2017  1 12  1 56  8.40  12.5332  141.5927   52.10 -2.00  0.00  0.00  0.00        246
Y03        15.640   1.000   P
Y03        22.220   1.000   S
Y85        10.870   1.000   P
Y07        10.610   1.000   P
Y09        26.380   1.000   S
# 2017  1 12  2  5  9.56  11.8290  141.6922   90.40 -2.00  0.00  0.00  0.00        247
Y09        14.450   1.000   P
Y03        16.380   1.000   P
Y03        23.980   1.000   S
Y85        16.430   1.000   P
Y07        16.370   1.000   P
Y06        15.450   1.000   P
Y40        15.850   1.000   P
# 2017  1 12  3  6 10.66  12.0140  141.6757   10.00 -2.00  0.00  0.00  0.00        248
Y03         9.330   1.000   P
Y03        15.950   1.000   S
Y85         9.340   1.000   P
Y40         9.370   1.000   P
# 2017  1 12  3 13 56.16  12.1998  141.2283   10.40 -2.00  0.00  0.00  0.00        249
Y07         5.830   1.000   P
Y06         4.880   1.000   P
Y09        11.740   1.000   P
Y09        19.930   1.000   S
Y85         3.850   1.000   P
Y03        11.520   1.000   S
# 2017  1 12  3 48 12.27  12.1472  141.5515    5.00 -2.00  0.00  0.00  0.00        250
Y09         6.390   1.000   P
Y03         8.730   1.000   P
Y03        16.530   1.000   S
Y85         6.790   1.000   P
Y07         6.790   1.000   P
# 2017  1 12  4 58 50.45  12.0628  141.7962   33.90 -2.00  0.00  0.00  0.00        251
Y09        12.110   1.000   S
Y85         9.580   1.000   P
Y85        20.430   1.000   S
Y07         9.540   1.000   P
Y07        11.210   1.000   S
Y06         7.580   1.000   P
Y40        10.590   1.000   P
# 2017  1 12  5 28 54.13  11.9453  141.6075   56.60 -2.00  0.00  0.00  0.00        252
Y09         9.800   1.000   P
Y03        10.870   1.000   P
Y85        12.900   1.000   P
Y07        10.880   1.000   P
Y07        19.150   1.000   S
Y06        14.440   1.000   P
Y06        14.500   1.000   S
Y40        12.880   1.000   P
# 2017  1 12  6 11 36.76  12.0710  141.7745   46.20 -2.00  0.00  0.00  0.00        253
Y09        14.910   1.000   S
Y85        12.290   1.000   P
Y07        14.060   1.000   S
Y06         9.310   1.000   P
Y40        11.770   1.000   P
# 2017  1 12  6 25 24.16  11.5078  140.6303   11.00 -2.00  0.00  0.00  0.00        254
Y03        26.340   1.000   S
Y09        24.840   1.000   P
Y07        24.900   1.000   P
Y06        28.830   1.000   P
Y40        24.350   1.000   P
# 2017  1 12  6 32  4.25  12.2663  141.3770   10.00 -2.00  0.00  0.00  0.00        255
Y03         5.750   1.000   P
Y03        12.040   1.000   S
Y07         2.790   1.000   P
Y85         1.770   1.000   P
Y40         2.750   1.000   P
# 2017  1 12  7 53 55.14  12.1690  141.5072   10.00 -2.00  0.00  0.00  0.00        256
Y03        10.800   1.000   P
Y03        11.070   1.000   S
Y85         4.850   1.000   P
Y07         4.880   1.000   P
# 2017  1 12  8  5  7.95  11.9767  141.7192   10.00 -2.00  0.00  0.00  0.00        257
Y03         9.910   1.000   P
Y03        15.990   1.000   S
Y07         6.000   1.000   P
Y06         6.050   1.000   P
# 2017  1 12  8 21 48.46  12.2992  140.9507   10.00 -2.00  0.00  0.00  0.00        258
Y07        27.070   1.000   S
Y06        21.650   1.000   P
Y40        23.450   1.000   P
# 2017  1 12  9  6 48.10  11.6337  141.9918   10.00 -2.00  0.00  0.00  0.00        259
Y09        15.020   1.000   S
Y07         1.930   1.000   P
Y40         1.920   1.000   P
# 2017  1 12  9 22 40.55  12.8288  140.9122    9.80 -2.00  0.00  0.00  0.00        260
Y03        33.650   1.000   S
Y09        14.450   1.000   P
Y85        13.380   1.000   P
Y07        20.340   1.000   P
Y06        15.440   1.000   P
# 2017  1 12  9 34  3.16  12.2068  141.5160   10.00 -2.00  0.00  0.00  0.00        261
Y85         3.910   1.000   P
Y40         4.820   1.000   P
Y03         5.840   1.000   P
Y03        12.030   1.000   S
# 2017  1 12  9 47 59.64  11.9603  141.5210   10.00 -2.00  0.00  0.00  0.00        262
Y03         5.370   1.000   P
Y03        11.370   1.000   S
Y07         7.410   1.000   P
Y06         7.400   1.000   P
Y09         7.400   1.000   P
Y40         7.430   1.000   P
# 2017  1 12 10 44 34.81  11.5182  141.4400   16.80 -2.00  0.00  0.00  0.00        263
Y09        17.810   1.000   S
Y85        13.240   1.000   P
Y07        16.160   1.000   P
Y07        16.360   1.000   S
Y06        12.190   1.000   P
Y40        14.190   1.000   P
Y40        15.810   1.000   S
# 2017  1 12 10 48 52.35  12.0148  141.4418    5.00 -2.00  0.00  0.00  0.00        264
Y03         5.640   1.000   P
Y03        10.610   1.000   S
Y85         8.160   1.000   P
Y07         7.650   1.000   P
Y06        13.400   1.000   P
Y40         7.970   1.000   P
Y09         8.650   1.000   P
# 2017  1 12 11  2 55.31  12.1410  141.4857    9.60 -2.00  0.00  0.00  0.00        265
Y03         6.690   1.000   P
Y03        12.790   1.000   S
Y85         5.690   1.000   P
Y07         6.710   1.000   P
Y09         6.690   1.000   P
# 2017  1 12 11 25 52.36  11.9443  141.3700    7.20 -2.00  0.00  0.00  0.00        266
Y06        13.670   1.000   P
Y06        21.000   1.000   S
Y09        13.390   1.000   S
Y40        11.660   1.000   P
Y40        24.950   1.000   S
Y03         5.670   1.000   S
# 2017  1 12 11 46 56.07  12.0393  141.8247   63.20 -2.00  0.00  0.00  0.00        267
Y03        14.860   1.000   P
Y03        20.830   1.000   S
Y09        10.990   1.000   P
Y07        10.960   1.000   P
Y06        10.980   1.000   P
Y40        10.940   1.000   P
# 2017  1 12 12 24 40.32  12.0423  141.8295   88.90 -2.00  0.00  0.00  0.00        268
Y09        14.760   1.000   P
Y03        17.670   1.000   P
Y03        23.820   1.000   S
Y07        14.710   1.000   P
Y06        14.710   1.000   P
Y40        14.850   1.000   P
# 2017  1 12 12 34  6.94  10.6962  140.5377   10.30 -2.00  0.00  0.00  0.00        269
Y06        35.080   1.000   P
Y85        35.080   1.000   P
Y09        56.080   1.000   S
Y03        46.650   1.000   S
# 2017  1 12 15 28  8.34  12.0045  141.5903    5.40 -2.00  0.00  0.00  0.00        270
Y09        10.720   1.000   P
Y03         8.660   1.000   P
Y03        15.140   1.000   S
Y85         9.690   1.000   P
Y07         7.650   1.000   P
Y40         9.920   1.000   P
# 2017  1 12 15 52 40.76  12.0027  141.6082   27.80 -2.00  0.00  0.00  0.00        271
Y03         8.320   1.000   P
Y03        10.520   1.000   S
Y85         9.220   1.000   P
Y85        10.390   1.000   S
Y09         5.230   1.000   P
Y06         9.200   1.000   P
# 2017  1 12 18 17 34.86  12.1327  141.3000    5.00 -2.00  0.00  0.00  0.00        272
Y03         6.140   1.000   P
Y03        11.330   1.000   S
Y07        11.130   1.000   P
Y07        19.680   1.000   S
Y06        15.130   1.000   P
Y06        27.130   1.000   S
Y09        10.140   1.000   P
Y09        19.120   1.000   S
Y40        16.520   1.000   P
Y40        30.730   1.000   S
# 2017  1 12 19  6 38.70  11.8583  141.8200   10.00 -2.00  0.00  0.00  0.00        273
Y06         5.330   1.000   P
Y03         5.300   1.000   P
Y85        23.280   1.000   S
Y07         4.280   1.000   P
# 2017  1 12 19 20 35.73  11.9912  141.6278   14.10 -2.00  0.00  0.00  0.00        274
Y03         8.260   1.000   P
Y03        13.910   1.000   S
Y85         7.300   1.000   P
Y07         6.290   1.000   P
Y06         8.270   1.000   P
Y40         7.340   1.000   P
# 2017  1 12 20  4  1.46  12.1005  141.5135    9.50 -2.00  0.00  0.00  0.00        275
Y03         6.540   1.000   P
Y03        12.850   1.000   S
Y85         6.550   1.000   P
Y09         6.560   1.000   P
# 2017  1 12 20 24 16.41  11.9517  141.8563   34.00 -2.00  0.00  0.00  0.00        276
Y09         7.690   1.000   P
Y09        11.180   1.000   S
Y85         9.610   1.000   P
Y07         7.630   1.000   P
Y07        10.780   1.000   S
Y06         6.590   1.000   P
Y40         8.640   1.000   P
Y40         9.740   1.000   S
# 2017  1 12 20 53  1.07  12.0628  141.3810    5.00 -2.00  0.00  0.00  0.00        277
Y85         6.960   1.000   P
Y07         7.930   1.000   P
Y07        17.490   1.000   S
Y06        12.910   1.000   P
Y06        25.020   1.000   S
Y09         8.910   1.000   P
Y09        17.940   1.000   S
Y03         3.920   1.000   P
Y03         9.730   1.000   S
# 2017  1 12 22 37 14.91  11.9605  141.5052   32.40 -2.00  0.00  0.00  0.00        278
Y03         7.100   1.000   P
Y03         7.710   1.000   S
Y85         9.110   1.000   P
Y07        15.570   1.000   S
Y06        11.110   1.000   P
# 2017  1 12 23 36 47.65  12.1777  141.1585   40.50 -2.00  0.00  0.00  0.00        279
Y85         7.570   1.000   P
Y07        13.380   1.000   P
Y07        22.660   1.000   S
Y40         8.340   1.000   P
Y03         8.350   1.000   P
Y03        14.730   1.000   S
# 2017  1 13  0  1 24.39  11.8938  141.7893   10.00 -2.00  0.00  0.00  0.00        280
Y03        12.610   1.000   P
Y03        18.420   1.000   S
Y40         7.600   1.000   P
Y07         7.630   1.000   P
# 2017  1 13  0  4 50.94  11.9540  141.5800    6.20 -2.00  0.00  0.00  0.00        281
Y03         8.060   1.000   P
Y03        14.110   1.000   S
Y85        10.060   1.000   P
Y07         8.250   1.000   P
Y06        10.100   1.000   P
Y09        11.060   1.000   P
Y40         9.070   1.000   P
# 2017  1 13  0 36  1.88  10.5365  141.4575    8.50 -2.00  0.00  0.00  0.00        282
Y03        29.180   1.000   P
Y07        28.060   1.000   P
Y06        50.040   1.000   S
Y09        30.150   1.000   P
Y40        49.860   1.000   S
# 2017  1 13  2 36 46.13  11.9925  141.5077    5.00 -2.00  0.00  0.00  0.00        283
Y03         6.870   1.000   P
Y03        12.820   1.000   S
Y85         8.900   1.000   P
Y07         8.910   1.000   P
Y06         7.920   1.000   P
Y09         9.160   1.000   P
Y40         7.880   1.000   P
# 2017  1 13  2 50 41.33  11.8193  141.7487   77.00 -2.00  0.00  0.00  0.00        284
Y09        13.680   1.000   P
Y03        15.650   1.000   P
Y03        27.230   1.000   S
Y85        14.690   1.000   P
Y07        14.640   1.000   P
Y06        13.710   1.000   P
Y40        13.680   1.000   P
# 2017  1 13  2 52  9.17  12.1873  141.0905   39.30 -2.00  0.00  0.00  0.00        285
Y85         8.010   1.000   P
Y07        12.680   1.000   P
Y06        18.240   1.000   P
Y06        32.050   1.000   S
Y09        13.840   1.000   P
Y09        24.820   1.000   S
Y40        10.770   1.000   P
Y03         8.830   1.000   P
Y03        15.330   1.000   S
# 2017  1 13  3  2 44.47  12.0850  141.3362   10.00 -2.00  0.00  0.00  0.00        286
Y85         5.520   1.000   P
Y06        12.260   1.000   P
Y06        25.770   1.000   S
Y09         8.390   1.000   P
Y03         3.530   1.000   P
Y03         9.410   1.000   S
# 2017  1 13  3 35 14.85  11.8420  141.6005   57.00 -2.00  0.00  0.00  0.00        287
Y03        11.170   1.000   P
Y03        18.560   1.000   S
Y06        12.010   1.000   P
Y40        12.460   1.000   P
Y40        21.370   1.000   S
Y09         9.660   1.000   P
# 2017  1 13  3 39  4.70  12.0020  141.4718    5.00 -2.00  0.00  0.00  0.00        288
Y03         5.300   1.000   P
Y03        11.540   1.000   S
Y85         8.360   1.000   P
Y07         9.330   1.000   P
Y06         9.320   1.000   P
Y09         9.040   1.000   P
Y40         7.620   1.000   P
# 2017  1 13  4 16 13.78  12.2335  141.4743   12.00 -2.00  0.00  0.00  0.00        289
Y03         8.220   1.000   P
Y03        14.160   1.000   S
Y85         4.270   1.000   P
Y07         6.250   1.000   P
Y06         6.230   1.000   P
Y40         6.210   1.000   P
# 2017  1 13  4 31 37.84  12.2508  141.5342   12.00 -2.00  0.00  0.00  0.00        290
Y85         5.190   1.000   P
Y03         9.210   1.000   P
Y03        15.680   1.000   S
Y07         5.190   1.000   P
Y09        14.320   1.000   P
# 2017  1 13  4 39 58.23  12.0345  141.4592    5.00 -2.00  0.00  0.00  0.00        291
Y03         5.610   1.000   P
Y03        11.610   1.000   S
Y85         7.790   1.000   P
Y07         9.120   1.000   P
Y06         8.810   1.000   P
Y09         8.810   1.000   P
Y40         8.770   1.000   P
# 2017  1 13  5 13 53.33  13.1750  143.2163   10.10 -2.00  0.00  0.00  0.00        292
Y07        31.780   1.000   P
Y06        57.200   1.000   S
Y40        37.750   1.000   P
Y09        39.580   1.000   P
Y85        31.710   1.000   P
# 2017  1 13  6 10 20.85  12.2565  141.1668    6.80 -2.00  0.00  0.00  0.00        293
Y07        12.660   1.000   P
Y07        22.010   1.000   S
Y06        17.340   1.000   P
Y06        30.260   1.000   S
Y03         8.360   1.000   P
Y03        14.770   1.000   S
# 2017  1 13  6 27  3.89  11.5685  141.2527   10.20 -2.00  0.00  0.00  0.00        294
Y06        16.760   1.000   P
Y06        29.390   1.000   S
Y40         9.280   1.000   P
Y03         8.110   1.000   P
Y03        14.120   1.000   S
# 2017  1 13  6 34 51.50  12.1658  141.2993    7.40 -2.00  0.00  0.00  0.00        295
Y85         3.610   1.000   P
Y06        14.320   1.000   P
Y06        27.530   1.000   S
Y03         5.500   1.000   P
Y03        11.840   1.000   S
# 2017  1 13  6 36 13.73  11.6030  141.8645   10.00 -2.00  0.00  0.00  0.00        296
Y85         6.260   1.000   P
Y06         5.300   1.000   P
Y06        12.090   1.000   S
Y40         2.240   1.000   P
# 2017  1 13  6 36 50.41  11.6847  141.2143    7.20 -2.00  0.00  0.00  0.00        297
Y03         5.270   1.000   P
Y03        11.390   1.000   S
Y09         9.600   1.000   P
Y09        19.430   1.000   S
Y40        15.220   1.000   P
Y40        26.620   1.000   S
# 2017  1 13  7 16 22.79  11.9600  141.6157   10.00 -2.00  0.00  0.00  0.00        298
Y07         7.210   1.000   P
Y85         7.260   1.000   P
Y85        16.870   1.000   S
Y06         7.690   1.000   P
Y40        10.360   1.000   P
# 2017  1 13  7 18 11.75  12.1272  141.5093    5.00 -2.00  0.00  0.00  0.00        299
Y03         8.230   1.000   P
Y03        14.840   1.000   S
Y85         7.340   1.000   P
Y07         7.290   1.000   P
Y09         8.240   1.000   P
# 2017  1 13  7 28 43.78  11.6058  141.8653   10.00 -2.00  0.00  0.00  0.00        300
Y85         6.250   1.000   P
Y06         5.260   1.000   P
Y06        11.410   1.000   S
Y40         2.240   1.000   P
