# 2017  1 29 16  7 18.14  11.4250  141.7680    5.00 -2.00  0.00  0.00  0.00        525
Y03        16.860   1.000   P
Y03        26.970   1.000   S
Y09        10.920   1.000   P
Y06        12.820   1.000   P
Y06        22.930   1.000   S
Y40         9.840   1.000   P
H26        13.880   1.000   P
# 2017  1 29 19 35 12.36  12.3222  141.7235   10.00 -2.00  0.00  0.00  0.00        526
Y09        11.420   1.000   P
Y85        10.640   1.000   P
Y85        13.210   1.000   S
Y06         9.660   1.000   P
Y40        12.720   1.000   P
# 2017  1 29 19 56 29.54  11.8103  141.7097    6.90 -2.00  0.00  0.00  0.00        527
Y03        10.400   1.000   P
Y09         5.540   1.000   P
Y07         8.610   1.000   P
Y07        17.170   1.000   S
Y06         8.020   1.000   P
Y06        13.920   1.000   S
Y40         7.060   1.000   P
# 2017  1 29 20  3 16.87  11.4905  141.5592   13.20 -2.00  0.00  0.00  0.00        528
Y03        11.120   1.000   P
Y03        16.920   1.000   S
Y09         9.070   1.000   P
Y06         9.130   1.000   P
Y40         8.200   1.000   P
H26         8.280   1.000   P
# 2017  1 29 21 58 54.00  12.3307  141.9377    8.20 -2.00  0.00  0.00  0.00        529
Y09        10.290   1.000   P
Y09        19.650   1.000   S
Y07         5.610   1.000   P
Y07        10.150   1.000   S
Y06         9.170   1.000   P
Y06        17.340   1.000   S
# 2017  1 30  2 50 48.95  11.8843  141.7767    9.40 -2.00  0.00  0.00  0.00        530
Y03        10.990   1.000   P
Y03        12.120   1.000   S
Y09         3.030   1.000   P
Y07         8.110   1.000   P
Y06         6.070   1.000   P
Y40         5.070   1.000   P
# 2017  1 30  5 25 33.11  11.9305  141.2565   10.00 -2.00  0.00  0.00  0.00        531
Y03         2.000   1.000   P
Y03         2.180   1.000   S
Y85         3.640   1.000   P
H26         4.190   1.000   P
# 2017  1 30  5 45  3.89  12.3437  141.7195   10.00 -2.00  0.00  0.00  0.00        532
Y40         9.140   1.000   P
Y09        10.120   1.000   P
Y85         9.110   1.000   P
Y85        12.470   1.000   S
Y06        10.110   1.000   P
# 2017  1 30  6 54  6.32  12.9077  142.0650   10.20 -2.00  0.00  0.00  0.00        533
Y03        24.730   1.000   P
Y85        33.010   1.000   S
Y07        23.700   1.000   P
Y07        26.470   1.000   S
Y40        25.610   1.000   P
# 2017  1 30  7 11 50.91  12.1698  140.6115   10.00 -2.00  0.00  0.00  0.00        534
Y03        15.240   1.000   P
Y03        25.530   1.000   S
Y09        21.220   1.000   P
Y09        35.830   1.000   S
Y07        39.240   1.000   S
Y06        25.870   1.000   P
H26        10.100   1.000   P
# 2017  1 30 14 39 54.34  12.2072  141.4130    7.00 -2.00  0.00  0.00  0.00        535
Y03        13.860   1.000   S
Y85         3.650   1.000   P
Y07         8.160   1.000   P
Y09         9.650   1.000   P
H26         6.700   1.000   P
# 2017  1 30 17 44 27.53  11.0215  141.1752   10.20 -2.00  0.00  0.00  0.00        536
Y85        21.470   1.000   P
Y06        44.290   1.000   S
Y09        33.930   1.000   S
Y03        20.970   1.000   P
Y03        26.470   1.000   S
Y40        21.510   1.000   P
H26        25.500   1.000   S
# 2017  1 30 19 26 13.08  11.8950  141.5550   10.00 -2.00  0.00  0.00  0.00        537
Y06         7.980   1.000   P
Y09         7.980   1.000   P
Y85        33.110   1.000   S
Y07        11.190   1.000   P
# 2017  1 30 19 31  5.67  12.1890  141.4723   16.00 -2.00  0.00  0.00  0.00        538
Y85         4.350   1.000   P
Y07         6.370   1.000   P
Y07         6.740   1.000   S
Y06         8.320   1.000   P
Y40         8.320   1.000   P
Y09         8.320   1.000   P
# 2017  1 30 20  4  1.24  12.0895  141.8680   10.00 -2.00  0.00  0.00  0.00        539
Y09         6.670   1.000   P
Y07         7.070   1.000   P
Y07         7.240   1.000   S
Y06         4.780   1.000   P
H26         5.770   1.000   P
# 2017  1 31  1 32 28.93  11.5533  141.8713   10.00 -2.00  0.00  0.00  0.00        540
Y03         2.130   1.000   P
Y85         7.850   1.000   P
Y85        16.230   1.000   S
Y09         2.100   1.000   P
Y40         2.100   1.000   P
H26         3.090   1.000   P
# 2017  1 31  2 19  9.01  11.1700  141.2627   10.00 -2.00  0.00  0.00  0.00        541
Y03        16.980   1.000   P
Y85        19.920   1.000   P
Y85        28.290   1.000   S
Y07        16.990   1.000   P
Y40        16.020   1.000   P
H26        16.020   1.000   P
# 2017  1 31  9 48 35.52  11.7533  141.6980   62.90 -2.00  0.00  0.00  0.00        542
Y03        13.580   1.000   P
Y85        12.490   1.000   P
Y09        10.470   1.000   P
Y07        13.510   1.000   P
Y06        12.490   1.000   P
Y06        17.540   1.000   S
Y40        11.540   1.000   P
Y40        14.500   1.000   S
H26        13.580   1.000   P
# 2017  1 31 10 20 50.23  11.8182  141.7918   37.70 -2.00  0.00  0.00  0.00        543
Y03        11.830   1.000   P
Y09         8.830   1.000   P
Y85        11.780   1.000   P
Y06         7.760   1.000   P
Y40         8.690   1.000   P
H26         9.140   1.000   P
H26        14.570   1.000   S
# 2017  1 31 11  9 53.21  11.8877  141.6653   13.80 -2.00  0.00  0.00  0.00        544
Y03         8.780   1.000   P
Y03        15.010   1.000   S
Y85         8.010   1.000   P
Y07         7.830   1.000   P
Y40         8.780   1.000   P
# 2017  2  1  3 23 35.69  11.1132  141.4188   10.00 -2.00  0.00  0.00  0.00        545
H26        12.040   1.000   P
Y85        13.420   1.000   P
Y40        12.290   1.000   P
Y40        17.260   1.000   S
# 2017  2  1  4  3 31.53  11.7273  141.0528   10.00 -2.00  0.00  0.00  0.00        546
H26        12.250   1.000   P
Y85        11.510   1.000   P
Y40        14.590   1.000   P
Y40        19.410   1.000   S
# 2017  2  1  4  5  3.70  11.5950  141.8632   10.00 -2.00  0.00  0.00  0.00        547
Y07         3.520   1.000   P
Y06         3.330   1.000   P
Y40         2.320   1.000   P
Y40         7.100   1.000   S
H26         3.600   1.000   P
# 2017  2  1  4 16 57.18  12.0980  141.4875    9.90 -2.00  0.00  0.00  0.00        548
Y85         7.950   1.000   P
Y09        16.570   1.000   S
Y40         8.430   1.000   P
# 2017  2  1  4 18  7.78  11.4383  141.3272   10.00 -2.00  0.00  0.00  0.00        549
H26        17.550   1.000   P
Y85        17.060   1.000   P
Y40        17.650   1.000   P
Y40        22.440   1.000   S
# 2017  2  1  4 30 12.99  12.0147  141.5617   10.10 -2.00  0.00  0.00  0.00        550
Y85         7.030   1.000   P
Y40        11.990   1.000   P
Y40        16.770   1.000   S
Y09         8.830   1.000   P
# 2017  2  1  4 31 12.30  12.0898  142.9098   10.00 -2.00  0.00  0.00  0.00        551
Y85        30.760   1.000   P
Y09        41.850   1.000   S
Y40        32.580   1.000   P
Y40        37.400   1.000   S
Y03        30.730   1.000   P
# 2017  2  1  4 44 48.83  11.0295  141.4008   10.00 -2.00  0.00  0.00  0.00        552
H26        11.780   1.000   P
Y85        13.120   1.000   P
Y40        15.580   1.000   P
Y40        20.440   1.000   S
# 2017  2  1  4 59 33.46  11.8070  141.5018   19.50 -2.00  0.00  0.00  0.00        553
Y09        10.360   1.000   P
Y85        10.510   1.000   P
Y07        10.370   1.000   P
Y40        10.440   1.000   P
Y40        15.260   1.000   S
# 2017  2  1  5  0 53.04  11.3340  141.5140   19.20 -2.00  0.00  0.00  0.00        554
Y03        13.010   1.000   P
Y85        12.980   1.000   P
Y40        10.780   1.000   P
Y40        15.580   1.000   S
H26        13.280   1.000   P
# 2017  2  1  5 13  0.34  12.2422  141.3632   10.00 -2.00  0.00  0.00  0.00        555
Y03         1.680   1.000   P
Y85         1.650   1.000   P
Y07         1.690   1.000   P
Y40         3.170   1.000   P
Y40         7.910   1.000   S
# 2017  2  1  5 27 41.37  12.2463  141.3680   10.00 -2.00  0.00  0.00  0.00        556
Y85         1.660   1.000   P
Y06         1.770   1.000   P
Y03         1.690   1.000   P
Y40         1.710   1.000   P
Y40         6.470   1.000   S
# 2017  2  1  6  3 13.51  11.6192  141.7513   10.00 -2.00  0.00  0.00  0.00        557
Y85        16.410   1.000   P
Y85        17.570   1.000   S
Y07        12.440   1.000   P
H26        11.780   1.000   P
# 2017  2  1  6  9 23.93  11.3425  141.1732   11.90 -2.00  0.00  0.00  0.00        558
Y85        19.070   1.000   P
Y09        20.410   1.000   P
Y40        21.950   1.000   P
Y40        27.790   1.000   S
Y06        19.360   1.000   P
H26        18.720   1.000   P
# 2017  2  1  6 33 19.92  11.2353  141.4700   11.90 -2.00  0.00  0.00  0.00        559
Y09        14.460   1.000   P
Y09        20.940   1.000   S
Y40        15.850   1.000   P
Y40        19.950   1.000   S
H26        10.800   1.000   P
# 2017  2  1  6 42 27.52  11.6078  141.6578   13.00 -2.00  0.00  0.00  0.00        560
Y03        10.450   1.000   P
Y85        10.470   1.000   P
Y09         6.460   1.000   P
Y06         9.970   1.000   P
Y40         6.480   1.000   P
Y40        10.420   1.000   S
H26         9.780   1.000   P
# 2017  2  1  8 41 20.04  11.3302  141.3998    5.10 -2.00  0.00  0.00  0.00        561
Y03        18.970   1.000   P
Y85        13.930   1.000   P
Y07        13.920   1.000   P
Y06        32.560   1.000   S
Y09        15.930   1.000   P
Y40        36.110   1.000   S
H26        16.570   1.000   P
# 2017  2  1  8 55 21.32  11.4075  141.3818    7.60 -2.00  0.00  0.00  0.00        562
H26        17.180   1.000   P
Y40        21.640   1.000   S
Y03        20.230   1.000   S
Y09        19.820   1.000   P
Y09        21.620   1.000   S
Y06        16.670   1.000   P
# 2017  2  1 12 40 58.32  11.9495  141.3267   10.00 -2.00  0.00  0.00  0.00        563
Y03         1.680   1.000   P
Y03         4.680   1.000   S
Y85         4.960   1.000   P
Y07         2.780   1.000   P
Y40         2.710   1.000   P
H26         4.930   1.000   P
# 2017  2  1 15  5  1.61  11.7642  140.9788   10.00 -2.00  0.00  0.00  0.00        564
Y85        11.390   1.000   P
Y40        17.030   1.000   P
Y40        21.800   1.000   S
H26        11.680   1.000   P
# 2017  2  1 15  7 48.33  11.3168  141.5740   19.40 -2.00  0.00  0.00  0.00        565
Y03        13.670   1.000   P
Y07        12.680   1.000   P
Y40        10.200   1.000   P
Y40        14.910   1.000   S
H26        12.400   1.000   P
# 2017  2  1 15 19 43.23  11.0477  141.4285   10.00 -2.00  0.00  0.00  0.00        566
Y85        12.660   1.000   P
Y09        14.680   1.000   P
Y40        15.130   1.000   P
Y40        19.730   1.000   S
H26        11.480   1.000   P
# 2017  2  1 15 34 32.44  12.2440  141.3655   10.00 -2.00  0.00  0.00  0.00        567
Y85         1.550   1.000   P
Y07         5.560   1.000   P
Y40         5.640   1.000   P
Y40        10.290   1.000   S
Y03         5.590   1.000   P
# 2017  2  1 15 35 51.76  11.7458  141.7232   12.10 -2.00  0.00  0.00  0.00        568
Y03        10.240   1.000   P
Y85         9.350   1.000   P
Y09         6.230   1.000   P
Y07        10.240   1.000   P
Y40         6.300   1.000   P
Y40        10.950   1.000   S
H26         8.900   1.000   P
# 2017  2  1 15 37 11.61  11.6428  141.6683   12.20 -2.00  0.00  0.00  0.00        569
Y03        10.380   1.000   P
Y03        17.810   1.000   S
Y09        12.420   1.000   P
Y07        12.430   1.000   P
Y40         6.440   1.000   P
Y40        11.060   1.000   S
# 2017  2  1 15 49  6.34  11.1670  141.4952    9.90 -2.00  0.00  0.00  0.00        570
H26        12.290   1.000   P
Y09        14.990   1.000   P
Y09        15.010   1.000   S
Y40        16.150   1.000   P
Y40        22.020   1.000   S
# 2017  2  1 15 50 26.09  11.3582  141.3343   15.40 -2.00  0.00  0.00  0.00        571
H26        16.620   1.000   P
Y40        16.530   1.000   P
Y40        22.280   1.000   S
Y09        22.670   1.000   S
Y85        17.820   1.000   P
Y06        17.820   1.000   P
# 2017  2  1 15 56 52.96  11.9767  141.5245   38.10 -2.00  0.00  0.00  0.00        572
Y09        12.310   1.000   S
Y03         8.040   1.000   P
Y85         5.030   1.000   P
Y07         9.060   1.000   P
Y40         9.700   1.000   P
Y40        14.300   1.000   S
# 2017  2  1 15 59 39.46  11.8968  141.8913    8.10 -2.00  0.00  0.00  0.00        573
Y85        10.530   1.000   P
Y07         8.560   1.000   P
Y09         5.760   1.000   P
Y40         7.720   1.000   P
Y40        13.500   1.000   S
H26         9.190   1.000   P
# 2017  2  1 16  0 58.23  11.4797  141.5340   10.00 -2.00  0.00  0.00  0.00        574
Y85        13.760   1.000   P
Y06        13.990   1.000   P
Y06        23.580   1.000   S
Y40         8.810   1.000   P
Y40        14.680   1.000   S
# 2017  2  1 16  6 16.79  11.8112  141.5402   30.10 -2.00  0.00  0.00  0.00        575
Y03         7.670   1.000   P
Y07        10.480   1.000   P
Y09        10.000   1.000   S
Y40        10.250   1.000   P
Y40        15.890   1.000   S
# 2017  2  1 16 10 16.45  11.5317  141.6808   12.00 -2.00  0.00  0.00  0.00        576
Y03        20.350   1.000   S
Y09         7.910   1.000   P
Y09        12.320   1.000   S
Y40         6.170   1.000   P
Y40        10.560   1.000   S
# 2017  2  1 16 11 34.36  11.8477  141.7250   12.40 -2.00  0.00  0.00  0.00        577
Y09         9.940   1.000   P
Y03         9.630   1.000   P
Y85         8.750   1.000   P
Y07         8.270   1.000   P
Y40         8.400   1.000   P
Y40        12.630   1.000   S
# 2017  2  1 16 12 54.70  11.4750  141.6365   10.00 -2.00  0.00  0.00  0.00        578
Y85        12.340   1.000   P
Y09         9.290   1.000   P
Y09        13.690   1.000   S
Y40         8.070   1.000   P
Y40        12.220   1.000   S
H26        12.590   1.000   P
# 2017  2  1 16 24 52.55  11.3537  141.6083   13.00 -2.00  0.00  0.00  0.00        579
H26         7.390   1.000   P
Y09        10.470   1.000   P
Y09        12.310   1.000   S
Y40        10.280   1.000   P
Y40        14.200   1.000   S
# 2017  2  1 16 26 14.44  11.8860  141.8025   12.70 -2.00  0.00  0.00  0.00        580
Y03        10.590   1.000   P
Y03        19.630   1.000   S
Y09         8.580   1.000   P
Y07        10.850   1.000   P
Y07        13.470   1.000   S
Y40         8.350   1.000   P
Y40        12.340   1.000   S
# 2017  2  1 16 40 57.30  11.5925  141.7342   10.00 -2.00  0.00  0.00  0.00        581
Y03        11.200   1.000   P
Y09         6.640   1.000   P
Y40         5.670   1.000   P
Y40         9.360   1.000   S
# 2017  2  1 17 22 21.16  11.5983  141.8637   10.00 -2.00  0.00  0.00  0.00        582
H26         5.420   1.000   P
Y03         4.380   1.000   P
Y03         6.510   1.000   S
Y40         2.350   1.000   P
Y40         5.650   1.000   S
Y06         4.800   1.000   P
# 2017  2  1 17 51 45.11  11.5918  141.8628   10.00 -2.00  0.00  0.00  0.00        583
Y85         4.910   1.000   P
Y06         4.860   1.000   P
Y40         2.300   1.000   P
Y40         6.180   1.000   S
H26         6.160   1.000   P
# 2017  2  1 18  3 36.34  12.0147  141.3397   10.00 -2.00  0.00  0.00  0.00        584
Y03         3.680   1.000   P
Y03         4.940   1.000   S
Y85         4.640   1.000   P
Y85        11.660   1.000   S
Y06         8.690   1.000   P
Y40         8.610   1.000   P
Y40        11.480   1.000   S
H26         7.390   1.000   P
# 2017  2  1 18  5  2.65  11.5923  141.8630   10.00 -2.00  0.00  0.00  0.00        585
Y07         4.390   1.000   P
Y06         4.380   1.000   P
Y40         2.350   1.000   P
Y40         5.250   1.000   S
H26         4.010   1.000   P
# 2017  2  1 18 40 27.42  11.9203  142.5278   10.30 -2.00  0.00  0.00  0.00        586
Y85        22.570   1.000   P
Y09        28.720   1.000   S
H26        22.580   1.000   P
Y03        26.300   1.000   P
Y03        27.670   1.000   S
# 2017  2  1 18 55 26.26  12.0740  141.4437   13.40 -2.00  0.00  0.00  0.00        587
Y85         5.730   1.000   P
Y09         6.770   1.000   P
Y09         8.530   1.000   S
H26         6.080   1.000   P
Y03         5.730   1.000   P
Y03         7.420   1.000   S
# 2017  2  1 18 56 47.93  11.9432  141.3988   10.00 -2.00  0.00  0.00  0.00        588
Y03         4.110   1.000   P
Y03         5.710   1.000   S
Y85         8.060   1.000   P
Y09         6.770   1.000   P
Y09         6.860   1.000   S
H26         9.390   1.000   P
# 2017  2  1 19 48 28.11  11.6452  141.8540   11.00 -2.00  0.00  0.00  0.00        589
Y03        18.070   1.000   P
Y03        19.980   1.000   S
Y85        14.120   1.000   P
Y09        24.770   1.000   S
H26        14.630   1.000   P
# 2017  2  1 19 49 56.43  12.0282  141.6618   10.90 -2.00  0.00  0.00  0.00        590
H26        10.200   1.000   P
Y03         9.600   1.000   P
Y03        11.540   1.000   S
Y09        16.490   1.000   S
Y85         9.590   1.000   P
Y85        15.720   1.000   S
Y06         7.550   1.000   P
Y06        14.410   1.000   S
# 2017  2  1 19 58 16.92  11.2453  141.5297    5.00 -2.00  0.00  0.00  0.00        591
Y85        15.010   1.000   P
Y09        16.170   1.000   P
Y40        18.640   1.000   P
Y40        21.690   1.000   S
Y06        15.100   1.000   P
Y06        21.380   1.000   S
H26        13.820   1.000   P
# 2017  2  1 20  1 53.77  12.2892  141.3233   10.00 -2.00  0.00  0.00  0.00        592
Y03        11.200   1.000   P
Y03        13.170   1.000   S
Y09        20.870   1.000   S
H26         9.470   1.000   P
# 2017  2  1 20  4 33.27  11.4035  141.3760    9.20 -2.00  0.00  0.00  0.00        593
Y03        11.460   1.000   P
Y03        13.450   1.000   S
Y09        21.030   1.000   S
Y06        16.750   1.000   P
H26        16.780   1.000   P
# 2017  2  1 20 13  8.41  11.7493  141.8737   12.00 -2.00  0.00  0.00  0.00        594
Y40         5.470   1.000   P
Y40         7.970   1.000   S
Y09         5.600   1.000   P
Y06         5.580   1.000   P
# 2017  2  1 20 17 50.85  11.4307  141.5268   10.00 -2.00  0.00  0.00  0.00        595
Y03        12.660   1.000   P
Y03        14.860   1.000   S
Y06        14.110   1.000   P
H26        13.940   1.000   P
# 2017  2  1 20 29 59.28  12.2530  141.3740   10.00 -2.00  0.00  0.00  0.00        596
Y06         2.710   1.000   P
Y85         1.720   1.000   P
Y03         2.700   1.000   P
Y03         5.610   1.000   S
# 2017  2  1 20 31 10.17  11.5790  141.5465   10.00 -2.00  0.00  0.00  0.00        597
Y03        12.290   1.000   P
Y03        14.610   1.000   S
Y85        15.860   1.000   P
Y06        11.820   1.000   P
H26        16.110   1.000   P
# 2017  2  1 20 42 27.93  11.9772  141.6420   10.00 -2.00  0.00  0.00  0.00        598
Y85        10.100   1.000   P
Y07         6.090   1.000   P
Y06         9.070   1.000   P
Y06        11.090   1.000   S
Y40        10.050   1.000   P
Y40        11.980   1.000   S
# 2017  2  1 20 55  0.08  11.4637  141.6858   13.70 -2.00  0.00  0.00  0.00        599
Y03        14.920   1.000   P
Y03        20.610   1.000   S
Y85         9.910   1.000   P
Y06        20.560   1.000   S
H26        13.250   1.000   P
# 2017  2  1 20 56 20.97  11.4718  141.5362    9.90 -2.00  0.00  0.00  0.00        600
Y03        17.750   1.000   P
Y03        19.680   1.000   S
Y85        17.060   1.000   P
Y07        16.030   1.000   P
H26        15.660   1.000   P
# 2017  2  1 20 57 56.84  11.9633  141.3212   10.00 -2.00  0.00  0.00  0.00        601
Y03         1.760   1.000   P
Y03         3.690   1.000   S
Y85         3.150   1.000   P
Y07         3.150   1.000   P
Y06         4.190   1.000   P
H26         4.960   1.000   P
# 2017  2  1 21  9 52.51  12.2477  141.3692   10.00 -2.00  0.00  0.00  0.00        602
Y03         5.120   1.000   P
Y03         7.280   1.000   S
Y85         1.480   1.000   P
Y85         4.350   1.000   S
Y07         3.520   1.000   P
H26         4.060   1.000   P
# 2017  2  1 21 11  5.98  11.7167  141.6345   10.00 -2.00  0.00  0.00  0.00        603
H26        14.280   1.000   P
Y03        11.550   1.000   P
Y03        13.710   1.000   S
Y40        10.040   1.000   P
Y40        11.060   1.000   S
# 2017  2  1 21 12 32.03  12.1162  141.2317   10.00 -2.00  0.00  0.00  0.00        604
Y07         9.990   1.000   P
Y09        10.990   1.000   P
Y03         5.410   1.000   P
Y03         7.570   1.000   S
