# 2017  1 23  4 48 55.38  11.5630  141.1755    5.00 -2.00  0.00  0.00  0.00        451
Y03        16.310   1.000   S
Y85        16.630   1.000   P
Y07        18.610   1.000   P
Y06        18.620   1.000   P
Y40        28.810   1.000   S
Y09        23.530   1.000   S
# 2017  1 23  9 10 51.42  11.8822  141.6397   10.00 -2.00  0.00  0.00  0.00        452
Y03         8.590   1.000   P
Y85        12.570   1.000   P
Y85        17.830   1.000   S
Y06         8.590   1.000   P
Y40         8.580   1.000   P
# 2017  1 23 10 33 31.35  12.1115  141.4290    5.00 -2.00  0.00  0.00  0.00        453
Y03         6.650   1.000   P
Y03        12.700   1.000   S
Y85         6.620   1.000   P
Y09         6.670   1.000   P
Y09        16.150   1.000   S
# 2017  1 23 10 41 11.29  12.0088  141.4317    5.00 -2.00  0.00  0.00  0.00        454
Y40         8.680   1.000   P
Y03         4.710   1.000   P
Y03        10.680   1.000   S
Y09         7.830   1.000   P
Y85         7.750   1.000   P
Y06         7.750   1.000   P
Y07         8.690   1.000   P
Y07        18.460   1.000   S
# 2017  1 23 11 14  1.58  11.9450  142.0180   21.60 -2.00  0.00  0.00  0.00        455
Y40         8.410   1.000   P
Y06         5.930   1.000   S
Y09        10.440   1.000   P
Y09        13.590   1.000   S
Y03        23.830   1.000   S
Y07         8.490   1.000   P
Y07        15.350   1.000   S
# 2017  1 23 13 47 21.15  12.0737  141.8147    8.00 -2.00  0.00  0.00  0.00        456
Y09         6.870   1.000   P
Y03         6.840   1.000   P
Y85        10.840   1.000   P
Y07         8.380   1.000   S
Y06         6.840   1.000   P
Y40         7.880   1.000   P
Y40        10.800   1.000   S
# 2017  1 23 16  6 41.82  12.0458  141.7480   38.40 -2.00  0.00  0.00  0.00        457
Y85         8.210   1.000   P
Y07         6.150   1.000   P
Y07        13.200   1.000   S
Y06         8.250   1.000   P
Y06        12.470   1.000   S
Y40        20.320   1.000   S
Y09         8.120   1.000   P
Y09        11.740   1.000   S
# 2017  1 23 16 48 41.14  11.8005  141.9653   10.00 -2.00  0.00  0.00  0.00        458
Y40         4.850   1.000   P
Y06         4.820   1.000   P
Y09         8.910   1.000   P
Y85        22.880   1.000   S
Y07         8.880   1.000   P
# 2017  1 23 18  0 21.23  12.1542  141.5082   12.00 -2.00  0.00  0.00  0.00        459
Y03         7.230   1.000   P
Y85         7.430   1.000   P
Y85         9.240   1.000   S
Y07         9.880   1.000   P
Y07        10.070   1.000   S
# 2017  1 23 18 20 22.65  11.7827  141.8663   45.30 -2.00  0.00  0.00  0.00        460
Y09         8.380   1.000   P
Y03        13.880   1.000   P
Y03        19.270   1.000   S
Y07         8.350   1.000   P
Y06         8.390   1.000   P
Y40         8.400   1.000   P
# 2017  1 23 23 15  5.07  12.0977  141.3350   10.00 -2.00  0.00  0.00  0.00        461
Y03         4.930   1.000   P
Y85         4.910   1.000   P
Y07         7.990   1.000   P
Y06        22.450   1.000   S
Y40        26.830   1.000   S
Y09         8.870   1.000   P
# 2017  1 24  9 40 21.11  12.0468  141.7062   12.30 -2.00  0.00  0.00  0.00        462
Y40         0.880   1.000   P
Y03        16.800   1.000   S
Y09         4.930   1.000   P
Y09         7.200   1.000   S
Y07         4.870   1.000   P
Y07         8.380   1.000   S
Y06         0.880   1.000   P
# 2017  1 24 10 40 35.14  11.9927  141.8387   12.50 -2.00  0.00  0.00  0.00        463
Y85         1.890   1.000   P
Y06         4.650   1.000   P
Y06         8.070   1.000   S
Y40         5.800   1.000   P
Y40        10.320   1.000   S
Y09         4.840   1.000   P
Y09         8.510   1.000   S
# 2017  1 24 13 38 39.24  12.2868  141.7247   28.50 -2.00  0.00  0.00  0.00        464
Y07         4.570   1.000   P
Y07         8.230   1.000   S
Y06        10.060   1.000   P
Y06        17.470   1.000   S
Y09         9.320   1.000   P
Y09        16.200   1.000   S
# 2017  1 24 16  7 48.84  11.7618  141.8375    8.90 -2.00  0.00  0.00  0.00        465
Y40         5.440   1.000   P
Y40         9.790   1.000   S
Y09         5.580   1.000   P
Y07        10.010   1.000   P
Y07        17.110   1.000   S
Y06         6.530   1.000   P
Y06        10.970   1.000   S
# 2017  1 24 21 59  1.88  11.8277  141.9423   19.50 -2.00  0.00  0.00  0.00        466
Y40         6.040   1.000   P
Y40        10.480   1.000   S
Y09         6.660   1.000   P
Y09        11.150   1.000   S
Y06         4.440   1.000   P
Y06         7.230   1.000   S
Y07         9.150   1.000   P
Y07        15.930   1.000   S
# 2017  1 24 23 33 23.79  12.0147  141.9932   10.00 -2.00  0.00  0.00  0.00        467
Y03         3.240   1.000   P
Y09         5.280   1.000   P
Y09        10.030   1.000   S
Y85         2.250   1.000   P
Y06         2.230   1.000   P
# 2017  1 24 23 53 31.38  11.4455  141.4053    5.00 -2.00  0.00  0.00  0.00        468
Y03        11.650   1.000   P
Y85        31.760   1.000   S
Y09        11.660   1.000   P
Y40        12.650   1.000   P
# 2017  1 25  0  5 13.48  13.4562  141.0133   10.00 -2.00  0.00  0.00  0.00        469
Y09        30.540   1.000   P
Y03        30.510   1.000   P
Y85        41.080   1.000   S
Y07        28.600   1.000   P
Y40        31.130   1.000   P
# 2017  1 25  0 39 11.43  11.9758  141.5365   11.90 -2.00  0.00  0.00  0.00        470
Y85         7.610   1.000   P
Y07         7.600   1.000   P
Y06        11.740   1.000   P
Y06        16.220   1.000   S
Y40        10.740   1.000   P
Y40        15.330   1.000   S
Y09         8.560   1.000   P
# 2017  1 25  1 16 16.88  11.9738  141.5838   12.10 -2.00  0.00  0.00  0.00        471
Y40        10.180   1.000   P
Y85        11.070   1.000   P
Y85        13.710   1.000   S
Y06         9.110   1.000   P
Y07        22.790   1.000   S
# 2017  1 25  1 40 49.55  11.7428  141.9095   10.80 -2.00  0.00  0.00  0.00        472
Y03         5.510   1.000   P
Y85         5.560   1.000   P
Y09         6.400   1.000   P
Y06         5.530   1.000   P
Y40         4.500   1.000   P
Y40         7.860   1.000   S
# 2017  1 25  2  8  4.45  11.8510  141.5868   11.90 -2.00  0.00  0.00  0.00        473
Y40         8.530   1.000   P
Y03         7.560   1.000   P
Y03        10.240   1.000   S
Y06         8.590   1.000   P
Y07        19.180   1.000   S
# 2017  1 25  9 17  9.84  11.9308  141.6052   28.40 -2.00  0.00  0.00  0.00        474
Y03         8.180   1.000   P
Y85        10.140   1.000   P
Y85        17.740   1.000   S
Y06         9.200   1.000   P
Y09         9.190   1.000   P
Y40         9.170   1.000   P
# 2017  1 25 10 18  4.62  12.1772  141.7043   17.80 -2.00  0.00  0.00  0.00        475
Y03        12.000   1.000   P
Y03        18.210   1.000   S
Y85         8.470   1.000   P
Y06         8.360   1.000   P
Y40         9.350   1.000   P
# 2017  1 25 15 12  1.85  12.1352  141.5887   51.60 -2.00  0.00  0.00  0.00        476
Y03        11.150   1.000   P
Y03        19.510   1.000   S
Y85        10.200   1.000   P
Y07        11.190   1.000   P
Y06        12.160   1.000   P
Y40        12.750   1.000   P
Y09        11.190   1.000   P
# 2017  1 25 20 21 26.25  11.7988  141.6863    9.90 -2.00  0.00  0.00  0.00        477
Y03         9.690   1.000   P
Y85        11.750   1.000   P
Y85        22.730   1.000   S
Y40         7.740   1.000   P
# 2017  1 26  3  8 54.55  11.5868  141.5440   10.00 -2.00  0.00  0.00  0.00        478
Y85        13.450   1.000   P
Y07        14.450   1.000   P
Y07        14.730   1.000   S
H26        12.960   1.000   P
# 2017  1 26  5  0 59.60  11.3013  141.8213   10.00 -2.00  0.00  0.00  0.00        479
Y07         7.150   1.000   P
Y09         8.270   1.000   P
H26         4.670   1.000   P
H26         4.990   1.000   S
# 2017  1 26  5  3 53.00  11.9443  142.0075   10.00 -2.00  0.00  0.00  0.00        480
Y85         2.990   1.000   P
Y09         2.010   1.000   P
Y06         2.000   1.000   P
H26         7.500   1.000   P
H26         7.950   1.000   S
# 2017  1 26  7 18 13.99  11.9313  141.9355   10.00 -2.00  0.00  0.00  0.00        481
Y03         6.000   1.000   P
Y85         4.060   1.000   P
Y85         7.230   1.000   S
Y07         5.040   1.000   P
Y06         1.980   1.000   P
Y40         5.010   1.000   P
# 2017  1 26 11 42  2.15  12.1093  142.1793   10.00 -2.00  0.00  0.00  0.00        482
Y85        10.850   1.000   P
Y07        11.860   1.000   P
Y06        12.070   1.000   S
Y09        11.710   1.000   P
# 2017  1 26 16 59 53.07  11.5690  141.6255   10.00 -2.00  0.00  0.00  0.00        483
Y85         7.180   1.000   P
Y85        10.220   1.000   S
Y09         8.000   1.000   P
Y06         8.950   1.000   P
Y40         6.950   1.000   P
H26         8.980   1.000   P
# 2017  1 26 17 16 48.61  11.6405  139.8293   10.00 -2.00  0.00  0.00  0.00        484
Y03        63.770   1.000   S
Y09        42.430   1.000   P
Y06        43.390   1.000   P
H26        42.430   1.000   P
# 2017  1 26 20  6 44.24  12.2042  141.6990   42.40 -2.00  0.00  0.00  0.00        485
Y09        12.820   1.000   P
Y03        12.360   1.000   P
Y85         9.770   1.000   P
Y07        10.820   1.000   P
Y07        12.220   1.000   S
Y06        10.760   1.000   P
Y06        17.980   1.000   S
Y40        10.860   1.000   P
# 2017  1 26 20 10  8.84  11.4058  141.3065   10.00 -2.00  0.00  0.00  0.00        486
Y03        29.780   1.000   S
Y85        17.150   1.000   P
Y09        14.230   1.000   P
Y06        16.170   1.000   P
Y40        13.160   1.000   P
H26        17.870   1.000   P
# 2017  1 27  2  4 35.23  11.9605  141.9068    7.40 -2.00  0.00  0.00  0.00        487
Y03         5.760   1.000   P
Y03         9.240   1.000   S
Y85         8.760   1.000   P
Y07         8.060   1.000   P
Y09         6.760   1.000   P
Y09        11.080   1.000   S
Y06        20.680   1.000   S
Y40         8.800   1.000   P
H26         9.380   1.000   P
# 2017  1 27  2 23 43.11  12.0927  141.5820    9.70 -2.00  0.00  0.00  0.00        488
Y03         8.250   1.000   P
Y03        13.540   1.000   S
Y06         9.770   1.000   P
Y06        16.650   1.000   S
Y09         6.020   1.000   P
Y09         9.810   1.000   S
# 2017  1 27  7  3 32.37  12.1975  141.7670   10.00 -2.00  0.00  0.00  0.00        489
Y07         1.640   1.000   P
Y07         2.920   1.000   S
Y06         4.920   1.000   P
H26         6.150   1.000   P
Y09         5.620   1.000   P
# 2017  1 27  8 20 22.52  12.1410  142.3063   15.70 -2.00  0.00  0.00  0.00        490
Y09        13.500   1.000   P
Y85        14.530   1.000   P
Y07        11.470   1.000   P
Y06        13.630   1.000   S
Y40        13.490   1.000   P
Y40        18.260   1.000   S
# 2017  1 27  8 24 58.23  13.6450  141.3295    9.90 -2.00  0.00  0.00  0.00        491
Y03        32.840   1.000   P
Y85        45.820   1.000   S
Y09        32.770   1.000   P
Y07        31.780   1.000   P
Y06        32.800   1.000   P
Y40        31.780   1.000   P
H26        32.300   1.000   P
# 2017  1 27  8 28 45.95  12.1773  141.4688   12.20 -2.00  0.00  0.00  0.00        492
Y06        12.060   1.000   P
Y06        20.970   1.000   S
Y07         6.440   1.000   P
Y40        15.040   1.000   P
Y40        25.540   1.000   S
H26        15.420   1.000   P
# 2017  1 27  8 28 53.75  11.9857  141.4967   10.00 -2.00  0.00  0.00  0.00        493
Y03         6.240   1.000   P
Y85         7.280   1.000   P
Y09         6.250   1.000   P
Y09         7.480   1.000   S
# 2017  1 27  9 55 28.47  14.0652  139.9440   10.00 -2.00  0.00  0.00  0.00        494
H26        62.180   1.000   P
Y03        88.400   1.000   S
Y09        62.600   1.000   P
Y07        90.090   1.000   S
Y06        63.440   1.000   P
# 2017  1 27 12  0 20.72  12.1405  141.3868   12.60 -2.00  0.00  0.00  0.00        495
Y85         4.350   1.000   P
Y07         8.170   1.000   P
Y07        14.060   1.000   S
Y09         5.300   1.000   P
H26         5.870   1.000   P
Y03         5.860   1.000   P
# 2017  1 27 12 10 45.61  11.8588  141.6793   38.20 -2.00  0.00  0.00  0.00        496
Y03        10.380   1.000   P
Y07         9.400   1.000   P
Y09         9.390   1.000   P
Y09        10.730   1.000   S
Y06         9.430   1.000   P
Y40         9.400   1.000   P
H26        10.250   1.000   P
# 2017  1 27 15 16 10.13  11.7280  141.2137   10.00 -2.00  0.00  0.00  0.00        497
Y85        11.870   1.000   P
Y85        14.430   1.000   S
Y06        16.980   1.000   P
Y40        13.860   1.000   P
H26        16.440   1.000   P
# 2017  1 27 15 26 48.91  12.1082  141.5815   34.30 -2.00  0.00  0.00  0.00        498
Y09         7.110   1.000   P
Y03         9.320   1.000   P
Y03        15.870   1.000   S
Y85         8.090   1.000   P
Y85         9.970   1.000   S
Y07         7.060   1.000   P
Y06         7.130   1.000   P
Y40         7.080   1.000   P
# 2017  1 27 17 19 29.52  11.9018  141.8283   13.00 -2.00  0.00  0.00  0.00        499
Y09         7.460   1.000   P
Y03         8.470   1.000   P
Y85         8.490   1.000   P
Y07         7.550   1.000   P
Y06         6.080   1.000   P
Y06         8.230   1.000   S
Y40         7.490   1.000   P
H26         9.780   1.000   P
# 2017  1 27 17 54  3.42  12.0392  141.8247   55.80 -2.00  0.00  0.00  0.00        500
Y03        13.610   1.000   P
Y07         9.950   1.000   P
Y07        17.120   1.000   S
Y06         9.690   1.000   P
Y06        16.580   1.000   S
Y40        12.150   1.000   P
Y40        22.350   1.000   S
Y09        10.080   1.000   P
# 2017  1 27 17 59 18.90  11.9088  141.5963    5.40 -2.00  0.00  0.00  0.00        501
Y03        12.140   1.000   P
Y85        11.100   1.000   P
Y85        19.410   1.000   S
Y06        10.040   1.000   P
Y40        11.140   1.000   P
Y40        16.850   1.000   S
H26        11.790   1.000   P
# 2017  1 27 20 53 36.76  12.0940  141.3045    6.80 -2.00  0.00  0.00  0.00        502
Y85         9.230   1.000   P
Y03         4.810   1.000   P
Y03         8.690   1.000   S
Y07        10.280   1.000   P
Y07        18.570   1.000   S
Y09        10.230   1.000   P
Y09        17.020   1.000   S
# 2017  1 27 23 52 47.41  11.4568  141.4318   14.00 -2.00  0.00  0.00  0.00        503
H26        15.780   1.000   P
Y03        15.590   1.000   P
Y03        16.920   1.000   S
Y06        14.610   1.000   P
# 2017  1 28  3 39 27.23  10.9777  140.5853   10.00 -2.00  0.00  0.00  0.00        504
Y03        27.770   1.000   P
Y03        33.910   1.000   S
Y85        28.740   1.000   P
Y07        27.800   1.000   P
Y09        27.810   1.000   P
Y40        27.820   1.000   P
H26        27.200   1.000   P
# 2017  1 28  5 45  1.44  11.6313  141.6907   40.90 -2.00  0.00  0.00  0.00        505
Y03        11.670   1.000   P
Y07        13.550   1.000   P
Y07        13.960   1.000   S
Y09        11.300   1.000   P
Y06        10.550   1.000   P
H26        10.580   1.000   P
# 2017  1 28  6  3 54.21  12.0220  141.6808   10.00 -2.00  0.00  0.00  0.00        506
Y09         2.460   1.000   P
Y09         7.060   1.000   S
Y03         7.710   1.000   P
Y03        16.390   1.000   S
Y85         9.780   1.000   P
# 2017  1 28  8 20 27.99  11.0995  142.3838   10.00 -2.00  0.00  0.00  0.00        507
H26         9.330   1.000   P
Y40        15.020   1.000   P
Y40        22.650   1.000   S
Y06        14.210   1.000   P
Y06        19.330   1.000   S
# 2017  1 28 16 31 56.82   9.6687  141.4945   10.00 -2.00  0.00  0.00  0.00        508
Y03        45.770   1.000   P
Y85        43.170   1.000   P
Y07        46.210   1.000   P
Y09        47.170   1.000   P
Y06        47.190   1.000   P
Y40        48.390   1.000   P
H26        60.610   1.000   S
# 2017  1 28 18  0 26.62  11.6893  141.6758   11.20 -2.00  0.00  0.00  0.00        509
Y03         9.850   1.000   P
Y07         9.280   1.000   P
Y09         5.580   1.000   P
Y09         8.510   1.000   S
Y06         8.880   1.000   P
H26        18.870   1.000   S
# 2017  1 28 18 35  3.65  12.1533  141.4163    5.00 -2.00  0.00  0.00  0.00        510
Y03        18.160   1.000   S
Y85         6.360   1.000   P
Y07        10.380   1.000   P
Y06         9.410   1.000   P
Y40        11.420   1.000   P
Y09        11.380   1.000   P
# 2017  1 28 18 41 18.22  11.9307  141.0070   11.20 -2.00  0.00  0.00  0.00        511
Y85         9.770   1.000   P
Y07        16.680   1.000   P
Y06        18.510   1.000   P
Y06        31.240   1.000   S
Y40        11.610   1.000   P
Y09        13.780   1.000   P
Y09        23.530   1.000   S
# 2017  1 28 20  0 52.83  13.3393  141.3607   11.30 -2.00  0.00  0.00  0.00        512
Y03        27.160   1.000   P
Y85        35.790   1.000   S
Y09        27.140   1.000   P
Y07        26.320   1.000   P
Y06        27.120   1.000   P
Y40        26.180   1.000   P
H26        26.200   1.000   P
# 2017  1 28 20 41 44.07  11.8315  141.5338   44.50 -2.00  0.00  0.00  0.00        513
Y09        11.900   1.000   P
Y03        14.900   1.000   P
Y03        15.820   1.000   S
Y85        11.880   1.000   P
Y07        11.880   1.000   P
Y06        11.100   1.000   P
Y40        11.920   1.000   P
# 2017  1 28 20 55 48.09  12.1512  141.3362   12.40 -2.00  0.00  0.00  0.00        514
Y85         3.880   1.000   P
Y07         7.900   1.000   P
Y07        18.540   1.000   S
Y09         6.920   1.000   P
Y09        15.980   1.000   S
Y40         6.940   1.000   P
Y03         5.940   1.000   P
Y03         9.750   1.000   S
# 2017  1 28 21 48 58.47  12.1632  141.6758   10.00 -2.00  0.00  0.00  0.00        515
Y03         9.550   1.000   P
Y85         5.550   1.000   P
Y85        13.550   1.000   S
Y06         8.520   1.000   P
Y40         9.550   1.000   P
# 2017  1 28 22 19 52.02  11.8890  141.6722   10.00 -2.00  0.00  0.00  0.00        516
Y09         2.000   1.000   P
Y40         5.980   1.000   P
Y40         8.990   1.000   S
H26         3.010   1.000   P
# 2017  1 28 22 31  0.44  12.2090  141.5323   12.40 -2.00  0.00  0.00  0.00        517
Y85         8.350   1.000   S
Y09         7.560   1.000   P
Y06        12.420   1.000   P
Y06        15.030   1.000   S
Y40         6.540   1.000   P
H26         7.550   1.000   P
# 2017  1 29  0 27 16.73  11.9318  141.6487   37.10 -2.00  0.00  0.00  0.00        518
Y09         9.260   1.000   P
Y03         9.260   1.000   P
Y85         8.280   1.000   P
Y07         9.280   1.000   P
Y06         8.270   1.000   P
Y40        11.490   1.000   P
Y40        14.080   1.000   S
# 2017  1 29  1 47 44.73  11.9322  141.1710   43.90 -2.00  0.00  0.00  0.00        519
Y85        10.380   1.000   P
Y06         7.450   1.000   P
Y09        12.000   1.000   P
Y09        21.000   1.000   S
Y03         7.270   1.000   P
Y03        12.710   1.000   S
Y40        10.300   1.000   P
H26        11.250   1.000   P
H26        17.580   1.000   S
# 2017  1 29  3  1 16.16  12.0537  141.6345   38.60 -2.00  0.00  0.00  0.00        520
Y03         9.830   1.000   P
Y85         9.830   1.000   P
Y09         8.830   1.000   P
Y06         9.830   1.000   P
Y40        12.530   1.000   P
Y40        14.780   1.000   S
H26         8.880   1.000   P
# 2017  1 29  7 19 42.76  11.5870  141.8628   10.00 -2.00  0.00  0.00  0.00        521
Y85         2.330   1.000   P
Y06         8.170   1.000   P
Y06        19.560   1.000   S
Y40         2.240   1.000   P
# 2017  1 29  8 35 17.83  11.7403  142.0153    5.10 -2.00  0.00  0.00  0.00        522
Y40         5.210   1.000   P
Y40         9.470   1.000   S
Y09         9.250   1.000   P
Y06         6.120   1.000   P
Y06        10.320   1.000   S
# 2017  1 29  9 36 45.87  11.7082  141.6145   15.70 -2.00  0.00  0.00  0.00        523
Y03         9.170   1.000   P
Y85        12.120   1.000   P
Y85        22.580   1.000   S
Y07         8.150   1.000   P
Y06        10.120   1.000   P
Y40         7.250   1.000   P
H26         9.420   1.000   P
# 2017  1 29 13  2 38.04  12.0002  141.9817   10.00 -2.00  0.00  0.00  0.00        524
Y09         3.950   1.000   P
Y85         5.980   1.000   P
Y06         2.300   1.000   P
Y06         3.010   1.000   S
