# 2017  1 16 15 54 47.76  12.1365  141.7785   23.30 -2.00  0.00  0.00  0.00        377
Y09         6.710   1.000   P
Y03         7.270   1.000   P
Y85        10.220   1.000   P
Y85        15.010   1.000   S
Y07         4.260   1.000   P
Y06         7.240   1.000   P
# 2017  1 16 16 29 37.08  11.8568  141.7142  110.50 -2.00  0.00  0.00  0.00        378
Y09        18.940   1.000   P
Y03        32.710   1.000   S
Y85        20.000   1.000   P
Y07        17.950   1.000   P
Y06        17.960   1.000   P
Y40        17.930   1.000   P
# 2017  1 16 17 41 55.29  12.2445  141.5045   12.20 -2.00  0.00  0.00  0.00        379
Y03         8.720   1.000   P
Y03        15.000   1.000   S
Y85         4.720   1.000   P
Y07         5.740   1.000   P
Y40         5.710   1.000   P
Y09         5.130   1.000   P
# 2017  1 16 17 55 10.68  11.9458  141.5243   54.30 -2.00  0.00  0.00  0.00        380
Y03        32.280   1.000   S
Y09         9.310   1.000   P
Y85        11.300   1.000   P
Y85        20.620   1.000   S
Y06        13.330   1.000   P
Y06        21.930   1.000   S
# 2017  1 16 18 39 18.26  11.9182  141.8170   22.20 -2.00  0.00  0.00  0.00        381
Y85         6.740   1.000   P
Y07        13.250   1.000   S
Y06         5.820   1.000   P
Y06         9.080   1.000   S
Y09         3.730   1.000   P
Y09         8.530   1.000   S
Y40         8.340   1.000   P
Y40        11.480   1.000   S
# 2017  1 16 20 10 58.60  11.8163  141.5587   12.00 -2.00  0.00  0.00  0.00        382
Y03        11.030   1.000   P
Y03        11.900   1.000   S
Y09         9.390   1.000   P
Y07         9.780   1.000   P
Y06         9.390   1.000   P
Y40         9.390   1.000   P
# 2017  1 16 22  5 11.41  12.0020  141.7515   16.20 -2.00  0.00  0.00  0.00        383
Y85        -1.420   1.000   P
Y07         5.550   1.000   P
Y07         9.950   1.000   S
Y06         6.390   1.000   P
Y06        10.800   1.000   S
Y09         3.980   1.000   P
Y09         7.060   1.000   S
Y40         8.170   1.000   P
Y40        10.810   1.000   S
# 2017  1 16 23  1 50.51  12.1643  141.5143   10.00 -2.00  0.00  0.00  0.00        384
Y03        10.180   1.000   P
Y03        12.350   1.000   S
Y85         5.520   1.000   P
Y07         5.510   1.000   P
# 2017  1 16 23  4 37.11  12.1950  141.5463   16.00 -2.00  0.00  0.00  0.00        385
Y09         7.920   1.000   P
Y03         7.930   1.000   P
Y03        11.870   1.000   S
Y85         6.070   1.000   P
Y85         6.080   1.000   S
Y07         4.910   1.000   P
Y06         6.910   1.000   P
Y40         6.920   1.000   P
# 2017  1 16 23 17 52.66  12.1850  141.7063   32.30 -2.00  0.00  0.00  0.00        386
Y09         9.350   1.000   P
Y09        13.890   1.000   S
Y03         8.340   1.000   P
Y85         9.340   1.000   P
Y07         5.320   1.000   P
Y06         9.280   1.000   P
Y40         7.850   1.000   P
# 2017  1 16 23 19 55.47  12.1860  141.5233   59.50 -2.00  0.00  0.00  0.00        387
Y09        11.590   1.000   P
Y03        20.860   1.000   S
Y85        10.540   1.000   P
Y07        10.570   1.000   P
Y06        10.930   1.000   P
Y40        12.540   1.000   P
# 2017  1 16 23 59 57.94  12.2405  141.6302   42.20 -2.00  0.00  0.00  0.00        388
Y03        11.280   1.000   P
Y85         9.070   1.000   P
Y07        11.080   1.000   P
Y07        12.540   1.000   S
Y06        20.050   1.000   S
Y09        10.060   1.000   P
# 2017  1 17  1  2 13.92  11.7042  141.6850   10.70 -2.00  0.00  0.00  0.00        389
Y03        10.090   1.000   P
Y07        11.190   1.000   P
Y40         5.890   1.000   P
Y40        11.660   1.000   S
# 2017  1 17  2 38 11.95  11.9713  141.5892   10.90 -2.00  0.00  0.00  0.00        390
Y09         8.070   1.000   P
Y03         7.430   1.000   P
Y85         9.050   1.000   P
Y85        15.820   1.000   S
Y07         7.080   1.000   P
Y06         8.040   1.000   P
Y40         7.340   1.000   P
# 2017  1 17  3 50 59.52  11.7873  141.7717   41.30 -2.00  0.00  0.00  0.00        391
Y03        12.180   1.000   P
Y09         9.510   1.000   P
Y85        27.420   1.000   S
Y06         8.490   1.000   P
Y40         8.500   1.000   P
# 2017  1 17  6 33 20.72  11.8963  141.5772    5.00 -2.00  0.00  0.00  0.00        392
Y03         8.280   1.000   P
Y03        14.670   1.000   S
Y85        11.280   1.000   P
Y06        10.380   1.000   P
Y09        10.340   1.000   P
Y40        11.270   1.000   P
# 2017  1 17  8 23 16.52  11.9860  141.5553    6.90 -2.00  0.00  0.00  0.00        393
Y03         5.480   1.000   P
Y03        12.990   1.000   S
Y85         9.490   1.000   P
Y07         7.490   1.000   P
Y06         8.490   1.000   P
Y09         7.700   1.000   P
Y09         7.710   1.000   S
Y40         7.500   1.000   P
# 2017  1 17  9 33 20.49  11.7977  141.8382   17.00 -2.00  0.00  0.00  0.00        394
Y09         4.540   1.000   P
Y07         5.460   1.000   P
Y06         5.530   1.000   P
Y40         5.510   1.000   P
Y40         7.500   1.000   S
# 2017  1 17 10 34 18.25  12.2282  141.3340   10.00 -2.00  0.00  0.00  0.00        395
Y85         1.740   1.000   P
Y07         4.400   1.000   P
Y07         5.110   1.000   S
Y06         1.790   1.000   P
# 2017  1 17 11  0  4.41  12.0558  141.4703    5.00 -2.00  0.00  0.00  0.00        396
Y03         6.590   1.000   P
Y03        12.510   1.000   S
Y85         7.620   1.000   P
Y07         8.630   1.000   P
Y06         9.590   1.000   P
Y09         8.630   1.000   P
Y40         9.590   1.000   P
# 2017  1 17 14 59 31.48  12.2730  141.1323   25.20 -2.00  0.00  0.00  0.00        397
Y85         5.530   1.000   P
Y07        12.810   1.000   P
Y07        22.140   1.000   S
Y06        31.120   1.000   S
Y09        13.310   1.000   P
Y40        31.060   1.000   S
Y03         8.520   1.000   P
Y03        14.850   1.000   S
# 2017  1 17 15  8 32.97  11.6843  141.6047    5.00 -2.00  0.00  0.00  0.00        398
Y03        10.060   1.000   P
Y85        13.020   1.000   P
Y85        26.310   1.000   S
Y09        10.040   1.000   P
Y07         9.040   1.000   P
Y06        11.040   1.000   P
Y40         9.040   1.000   P
# 2017  1 17 16 15  5.30  11.7723  141.6370   12.60 -2.00  0.00  0.00  0.00        399
Y03         8.700   1.000   P
Y03        15.100   1.000   S
Y09         8.670   1.000   P
Y07         7.980   1.000   P
Y06         8.730   1.000   P
Y40         7.810   1.000   P
# 2017  1 17 16 48 42.22  11.9830  141.5015   10.00 -2.00  0.00  0.00  0.00        400
Y03         5.790   1.000   P
Y85         8.680   1.000   P
Y85        11.370   1.000   S
Y06         7.810   1.000   P
Y09         5.800   1.000   P
Y40         6.810   1.000   P
# 2017  1 17 16 56 19.32  11.8863  141.7712   51.70 -2.00  0.00  0.00  0.00        401
Y09        10.690   1.000   P
Y09        14.900   1.000   S
Y85        11.710   1.000   P
Y07        10.710   1.000   P
Y06        11.670   1.000   P
Y06        16.750   1.000   S
Y40        10.700   1.000   P
Y40        15.770   1.000   S
# 2017  1 17 17 30 41.78  11.6953  142.2143   12.60 -2.00  0.00  0.00  0.00        402
Y03         7.240   1.000   P
Y03        14.320   1.000   S
Y07         8.280   1.000   P
Y06        12.110   1.000   S
Y40         7.210   1.000   P
Y40        11.210   1.000   S
# 2017  1 17 21  9 24.06  11.9843  141.6445   10.00 -2.00  0.00  0.00  0.00        403
Y03         8.810   1.000   S
Y85        10.970   1.000   P
Y07         8.260   1.000   P
Y07         8.370   1.000   S
# 2017  1 18  3 17 21.15  11.8082  141.5820    9.80 -2.00  0.00  0.00  0.00        404
Y03         7.850   1.000   P
Y03        13.650   1.000   S
Y07         9.860   1.000   P
Y06         9.920   1.000   P
Y40         9.220   1.000   P
# 2017  1 18  9 48 44.82  11.9493  141.8565   10.00 -2.00  0.00  0.00  0.00        405
Y06         5.170   1.000   P
Y09         5.200   1.000   P
Y03         5.150   1.000   P
Y85        26.410   1.000   S
Y07         4.190   1.000   P
# 2017  1 18 11 56 42.98  12.1245  141.7013   15.40 -2.00  0.00  0.00  0.00        406
Y03        10.000   1.000   P
Y03        15.570   1.000   S
Y07         3.680   1.000   P
Y07         3.810   1.000   S
Y40        12.030   1.000   P
# 2017  1 18 13 45 16.21  12.0565  141.6537   10.00 -2.00  0.00  0.00  0.00        407
Y03         8.020   1.000   P
Y07         6.930   1.000   P
Y07         7.250   1.000   S
Y40        10.700   1.000   P
# 2017  1 18 16 12 58.76  12.1187  141.2205   45.70 -2.00  0.00  0.00  0.00        408
Y85         8.330   1.000   P
Y07        12.880   1.000   P
Y07        22.020   1.000   S
Y06        17.540   1.000   P
Y06        29.910   1.000   S
Y40         9.260   1.000   P
Y03         8.240   1.000   P
Y03        14.560   1.000   S
# 2017  1 18 17 15 10.23  11.9517  141.6503   73.50 -2.00  0.00  0.00  0.00        409
Y09        11.940   1.000   P
Y03        14.040   1.000   P
Y85        14.810   1.000   P
Y06        13.770   1.000   P
Y06        21.240   1.000   S
Y40        14.800   1.000   P
# 2017  1 19  4 49  7.05  12.0775  141.4392   10.00 -2.00  0.00  0.00  0.00        410
Y03         5.980   1.000   P
Y85         5.940   1.000   P
Y07         8.950   1.000   P
Y07        10.730   1.000   S
Y09         6.970   1.000   P
# 2017  1 19  7 39 51.13  11.8915  141.5987    5.00 -2.00  0.00  0.00  0.00        411
Y03         8.870   1.000   P
Y03        15.390   1.000   S
Y85        10.880   1.000   P
Y07         9.940   1.000   P
Y06         9.930   1.000   P
Y06        12.780   1.000   S
Y09         9.910   1.000   P
Y40        10.860   1.000   P
# 2017  1 19  7 56 40.60  12.0378  141.4528    5.00 -2.00  0.00  0.00  0.00        412
Y03         5.410   1.000   P
Y03        11.450   1.000   S
Y85         7.430   1.000   P
Y09         8.460   1.000   P
Y40         8.470   1.000   P
# 2017  1 19 10 33 31.55  11.8685  141.4845    7.40 -2.00  0.00  0.00  0.00        413
Y03         6.440   1.000   P
Y85         8.460   1.000   P
Y85        18.500   1.000   S
Y09         5.430   1.000   P
# 2017  1 19 12 45 49.61  11.7817  141.8668   10.00 -2.00  0.00  0.00  0.00        414
Y09         6.410   1.000   P
Y85         6.380   1.000   P
Y85         9.320   1.000   S
Y07         6.410   1.000   P
Y06         5.430   1.000   P
Y40         5.370   1.000   P
# 2017  1 19 16  6 18.80  13.4508  141.3623   10.10 -2.00  0.00  0.00  0.00        415
Y03        29.220   1.000   P
Y85        39.610   1.000   S
Y09        29.210   1.000   P
Y07        29.210   1.000   P
Y06        28.430   1.000   P
Y40        27.950   1.000   P
# 2017  1 19 22 23  5.97  11.2763  141.5648   12.40 -2.00  0.00  0.00  0.00        416
Y09        23.470   1.000   S
Y03        23.700   1.000   S
Y85        20.040   1.000   P
Y07        19.380   1.000   P
Y06        16.040   1.000   P
Y06        25.480   1.000   S
Y40        19.070   1.000   P
# 2017  1 20  5 31 49.36  11.7308  142.1248   11.70 -2.00  0.00  0.00  0.00        417
Y40         5.650   1.000   P
Y06         5.670   1.000   P
Y09         9.870   1.000   P
Y09        17.260   1.000   S
Y03         5.680   1.000   P
Y07         5.660   1.000   P
# 2017  1 20  7 37  7.24  12.1125  141.4835   17.10 -2.00  0.00  0.00  0.00        418
Y03         6.770   1.000   P
Y85         5.760   1.000   P
Y85         7.940   1.000   S
Y07         6.790   1.000   P
Y06         3.580   1.000   P
Y40         5.750   1.000   P
Y09         6.750   1.000   P
# 2017  1 20 13 30 35.82  12.1413  141.4695   13.70 -2.00  0.00  0.00  0.00        419
Y09         8.180   1.000   P
Y03         6.190   1.000   P
Y85         7.170   1.000   P
Y85         9.370   1.000   S
Y07         6.070   1.000   P
Y06         7.160   1.000   P
Y40         7.250   1.000   P
# 2017  1 20 13 57 12.42  11.8623  141.5107   35.30 -2.00  0.00  0.00  0.00        420
Y09         6.540   1.000   P
Y03         7.580   1.000   P
Y85         6.580   1.000   P
Y06        11.310   1.000   P
Y06        14.700   1.000   S
Y40        11.450   1.000   P
Y40        16.020   1.000   S
# 2017  1 20 18 10 34.60  11.9775  141.5225    5.20 -2.00  0.00  0.00  0.00        421
Y03         7.410   1.000   P
Y03        12.960   1.000   S
Y85         9.400   1.000   P
Y07         8.830   1.000   P
Y06         9.400   1.000   P
Y09         8.460   1.000   P
Y40         8.410   1.000   P
# 2017  1 20 20  0 28.85  12.2258  141.5937    5.00 -2.00  0.00  0.00  0.00        422
Y40        11.130   1.000   P
Y03         8.190   1.000   P
Y09         8.190   1.000   P
Y09        17.630   1.000   S
Y85         9.160   1.000   P
Y06         9.090   1.000   P
Y07        20.500   1.000   S
# 2017  1 21  3 18  6.90  12.0368  141.5995    9.90 -2.00  0.00  0.00  0.00        423
Y09         5.570   1.000   P
Y03         7.120   1.000   P
Y85         5.110   1.000   P
Y85        15.250   1.000   S
Y07         5.550   1.000   P
Y06         7.010   1.000   P
Y40         6.130   1.000   P
# 2017  1 21  3 27  9.12  11.6217  141.5338   14.10 -2.00  0.00  0.00  0.00        424
Y03         8.890   1.000   P
Y03        14.910   1.000   S
Y85         9.950   1.000   P
Y07        10.890   1.000   P
Y09         6.900   1.000   P
Y09        11.910   1.000   S
Y06        10.890   1.000   P
Y40         8.900   1.000   P
Y40        14.580   1.000   S
# 2017  1 21  4 53 17.38  11.8825  141.9063   38.80 -2.00  0.00  0.00  0.00        425
Y03         6.610   1.000   P
Y07         9.770   1.000   P
Y07        10.590   1.000   S
Y06         6.640   1.000   P
Y09         7.650   1.000   P
Y40         8.610   1.000   P
# 2017  1 21  6 42 31.89  11.8047  141.8683   22.20 -2.00  0.00  0.00  0.00        426
Y09         5.470   1.000   P
Y03        11.360   1.000   P
Y03        19.310   1.000   S
Y07         9.920   1.000   P
Y06         5.110   1.000   P
Y06         9.600   1.000   S
Y40         6.120   1.000   P
# 2017  1 21 10  3 33.93  10.3887  142.5430    9.20 -2.00  0.00  0.00  0.00        427
Y03        39.190   1.000   P
Y85        40.090   1.000   P
Y07        39.070   1.000   P
Y06        55.090   1.000   S
Y40        59.230   1.000   S
# 2017  1 21 10 25 47.15  11.8828  142.1082   53.20 -2.00  0.00  0.00  0.00        428
Y40        10.840   1.000   P
Y03        33.640   1.000   S
Y09        11.850   1.000   P
Y85         8.840   1.000   P
Y06         8.840   1.000   P
Y07        25.200   1.000   S
# 2017  1 21 11 39 59.61  12.0523  141.5298   10.00 -2.00  0.00  0.00  0.00        429
Y85         7.180   1.000   P
Y09         9.430   1.000   P
Y09         9.550   1.000   S
Y40         7.450   1.000   P
# 2017  1 21 12 21 16.89  11.9530  141.6753   16.30 -2.00  0.00  0.00  0.00        430
Y09         7.140   1.000   P
Y03         9.100   1.000   P
Y85         7.130   1.000   P
Y85        17.260   1.000   S
Y07         7.150   1.000   P
Y06         7.120   1.000   P
Y40         7.130   1.000   P
# 2017  1 21 16 19 59.68  12.0673  141.4743    7.40 -2.00  0.00  0.00  0.00        431
Y03         6.320   1.000   P
Y03        11.560   1.000   S
Y85         7.280   1.000   P
Y07         7.380   1.000   P
Y06         7.390   1.000   P
Y09         7.380   1.000   P
Y40         7.350   1.000   P
# 2017  1 21 16 56 23.68  12.0530  141.6312   10.00 -2.00  0.00  0.00  0.00        432
Y03        10.270   1.000   P
Y03        14.060   1.000   S
Y85         8.360   1.000   P
Y06         8.340   1.000   P
# 2017  1 21 18  3 31.15  11.8210  141.6698    6.30 -2.00  0.00  0.00  0.00        433
Y03         9.890   1.000   P
Y03        17.300   1.000   S
Y85        11.880   1.000   P
Y06         8.830   1.000   P
Y40         8.850   1.000   P
# 2017  1 21 19 56 42.85  13.1585  142.3767   10.00 -2.00  0.00  0.00  0.00        434
Y09        26.930   1.000   P
Y85        46.340   1.000   S
Y06        26.220   1.000   P
Y40        25.140   1.000   P
# 2017  1 21 23  1  4.93  11.4295  141.5950   11.50 -2.00  0.00  0.00  0.00        435
Y09         9.610   1.000   P
Y85         8.160   1.000   P
Y07         9.100   1.000   P
Y06        13.760   1.000   P
Y40         8.070   1.000   P
Y40        14.320   1.000   S
# 2017  1 22  4 14  2.67  11.7708  141.5223    7.10 -2.00  0.00  0.00  0.00        436
Y03         7.570   1.000   P
Y03        13.170   1.000   S
Y85        11.300   1.000   P
Y07        10.390   1.000   P
Y07        20.030   1.000   S
Y06        11.330   1.000   P
Y40        10.360   1.000   P
# 2017  1 22  4 35  1.40  11.7985  141.8765   54.50 -2.00  0.00  0.00  0.00        437
Y03        11.560   1.000   P
Y85        11.600   1.000   P
Y07        12.590   1.000   P
Y07        22.140   1.000   S
Y09         9.580   1.000   P
Y09        16.800   1.000   S
Y06         8.580   1.000   P
Y06        16.440   1.000   S
Y40         9.600   1.000   P
Y40        17.530   1.000   S
# 2017  1 22  5 14 56.30  11.6332  141.7982   57.50 -2.00  0.00  0.00  0.00        438
Y03        14.810   1.000   P
Y03        20.440   1.000   S
Y09        10.710   1.000   P
Y07        11.670   1.000   P
Y06        11.710   1.000   P
Y40         9.720   1.000   P
# 2017  1 22  7 21 17.09  12.0843  141.7577   86.90 -2.00  0.00  0.00  0.00        439
Y03        16.890   1.000   P
Y07        14.220   1.000   P
Y07        21.850   1.000   S
Y06        14.950   1.000   P
Y06        22.900   1.000   S
Y09        14.510   1.000   P
# 2017  1 22  8 17 24.00  12.8387  142.3008   10.20 -2.00  0.00  0.00  0.00        440
Y03        26.020   1.000   P
Y85        34.620   1.000   S
Y09        24.990   1.000   P
Y07        24.000   1.000   P
Y07        31.640   1.000   S
Y06        30.760   1.000   S
Y40        22.990   1.000   P
# 2017  1 22 10 22 23.95  11.5478  141.8747   10.00 -2.00  0.00  0.00  0.00        441
Y40         2.040   1.000   P
Y40         4.040   1.000   S
Y03         2.070   1.000   P
Y09         5.480   1.000   P
# 2017  1 22 10 25 49.60  12.1013  141.7572   10.00 -2.00  0.00  0.00  0.00        442
Y09         7.420   1.000   P
Y09         7.630   1.000   S
Y03         6.260   1.000   P
Y06         5.510   1.000   P
# 2017  1 22 11 46 17.38  12.0580  141.4578    5.00 -2.00  0.00  0.00  0.00        443
Y85         7.650   1.000   P
Y07         8.630   1.000   P
Y06        22.830   1.000   S
Y40        29.760   1.000   S
Y09         7.660   1.000   P
# 2017  1 22 14 42 32.08  11.0815  141.2537   10.10 -2.00  0.00  0.00  0.00        444
Y85        17.940   1.000   P
Y07        22.900   1.000   P
Y06        39.020   1.000   S
Y40        16.940   1.000   P
Y03        16.960   1.000   P
# 2017  1 22 16 12 56.65  11.8567  141.5783    5.00 -2.00  0.00  0.00  0.00        445
Y03         8.350   1.000   P
Y03        14.860   1.000   S
Y85        11.310   1.000   P
Y07        10.400   1.000   P
Y06        10.460   1.000   P
Y40        10.380   1.000   P
# 2017  1 22 16 50 47.54  12.0713  141.5100    6.50 -2.00  0.00  0.00  0.00        446
Y09         8.480   1.000   P
Y03         7.440   1.000   P
Y03        13.000   1.000   S
Y85         7.490   1.000   P
Y07         7.460   1.000   P
Y06         7.510   1.000   P
Y40         7.470   1.000   P
# 2017  1 22 20 31 20.23  11.9390  141.3288   10.00 -2.00  0.00  0.00  0.00        447
Y03         1.780   1.000   P
Y85         5.780   1.000   P
Y09         3.790   1.000   P
Y06         6.790   1.000   P
Y40         4.820   1.000   P
Y40         7.120   1.000   S
# 2017  1 22 21 35 53.38  12.1502  141.4877    5.60 -2.00  0.00  0.00  0.00        448
Y03         8.340   1.000   P
Y03        14.480   1.000   S
Y07         7.430   1.000   P
Y07        13.080   1.000   S
Y06        12.680   1.000   P
# 2017  1 22 22  4 28.14  11.8250  141.6392   10.00 -2.00  0.00  0.00  0.00        449
Y03         2.870   1.000   P
Y09         1.870   1.000   P
Y09         2.190   1.000   S
Y40         1.880   1.000   P
# 2017  1 23  3 45 54.16  11.3053  141.6693   90.30 -2.00  0.00  0.00  0.00        450
Y03        19.810   1.000   P
Y85        19.710   1.000   P
Y07        21.810   1.000   P
Y09        17.840   1.000   P
Y06        19.750   1.000   P
Y06        23.580   1.000   S
Y40        15.880   1.000   P
Y40        18.370   1.000   S
