# 2017  1  6  6 36 52.02  11.7197  141.7177   31.80 -2.00  0.00  0.00  0.00        149
Y03        10.960   1.000   P
Y03        18.320   1.000   S
Y85         8.020   1.000   P
Y07        10.990   1.000   P
Y07        19.730   1.000   S
Y09         6.970   1.000   P
Y09        10.750   1.000   S
Y06         8.980   1.000   P
Y06        15.490   1.000   S
Y40         7.400   1.000   P
Y40        12.590   1.000   S
# 2017  1  6 11 28  5.00  11.9800  141.6078    9.30 -2.00  0.00  0.00  0.00        150
Y03         8.030   1.000   P
Y85         8.020   1.000   P
Y85        16.410   1.000   S
Y07         7.020   1.000   P
Y06         9.020   1.000   P
Y40         7.980   1.000   P
# 2017  1  6 12 59  5.01  12.2385  141.5867    7.40 -2.00  0.00  0.00  0.00        151
Y03         9.970   1.000   P
Y03        17.750   1.000   S
Y85         6.980   1.000   P
Y06        11.080   1.000   P
Y06        19.960   1.000   S
Y09         8.990   1.000   P
Y09        16.800   1.000   S
# 2017  1  6 21  0  2.30  12.0923  141.3892   10.00 -2.00  0.00  0.00  0.00        152
Y03         4.740   1.000   P
Y85         4.730   1.000   P
Y07         3.750   1.000   P
Y06         7.750   1.000   P
Y06        18.600   1.000   S
Y40        21.350   1.000   S
Y09         8.280   1.000   P
# 2017  1  7  0 37 50.99  11.6972  141.8190    7.40 -2.00  0.00  0.00  0.00        153
Y03        27.100   1.000   S
Y85         9.960   1.000   P
Y09         5.020   1.000   P
Y06         8.960   1.000   P
Y40         5.010   1.000   P
# 2017  1  7  2 48  1.65  11.9588  141.4670   19.60 -2.00  0.00  0.00  0.00        154
Y03         7.340   1.000   P
Y85         6.340   1.000   P
Y06        24.730   1.000   S
Y09         4.350   1.000   P
Y40        29.660   1.000   S
# 2017  1  7 10 40 26.34  12.3222  141.1602   69.40 -2.00  0.00  0.00  0.00        155
Y07        15.810   1.000   P
Y09        19.390   1.000   P
Y85        11.650   1.000   P
Y03        13.660   1.000   P
Y03        23.910   1.000   S
# 2017  1  7 14 43 21.66  12.0118  141.6378   12.20 -2.00  0.00  0.00  0.00        156
Y40         9.350   1.000   P
Y03         7.320   1.000   P
Y03        14.450   1.000   S
Y85         8.920   1.000   P
Y06         8.500   1.000   P
Y06        14.080   1.000   S
# 2017  1  7 15  0 56.06  12.0992  141.7543    8.50 -2.00  0.00  0.00  0.00        157
Y85        10.410   1.000   P
Y07         6.030   1.000   P
Y07         6.220   1.000   S
Y09         5.850   1.000   P
# 2017  1  7 15 41 31.14  12.1208  141.5578   10.00 -2.00  0.00  0.00  0.00        158
Y03         6.770   1.000   P
Y85         6.140   1.000   P
Y07         6.840   1.000   P
Y07         7.080   1.000   S
# 2017  1  7 15 54 22.03  11.8470  141.5137   40.70 -2.00  0.00  0.00  0.00        159
Y03         8.410   1.000   P
Y03        14.480   1.000   S
Y07        10.950   1.000   P
Y07        17.400   1.000   S
Y06        10.430   1.000   P
Y09         7.340   1.000   P
Y09        12.770   1.000   S
Y40        11.410   1.000   P
Y40        20.580   1.000   S
# 2017  1  7 16 54 15.76  11.9132  141.7090   10.00 -2.00  0.00  0.00  0.00        160
Y03         9.180   1.000   P
Y07        10.780   1.000   P
Y07        11.050   1.000   S
Y40         8.270   1.000   P
# 2017  1  7 17 10 13.19  11.6492  141.3833    6.20 -2.00  0.00  0.00  0.00        161
Y03         6.470   1.000   P
Y03        13.700   1.000   S
Y07        14.810   1.000   P
Y07        25.780   1.000   S
Y06        14.790   1.000   P
Y06        26.060   1.000   S
Y40        14.830   1.000   P
Y40        21.610   1.000   S
# 2017  1  7 23 38 11.22  11.8662  141.6858   18.00 -2.00  0.00  0.00  0.00        162
Y09         8.800   1.000   P
Y03         8.810   1.000   P
Y85         8.780   1.000   P
Y85        17.430   1.000   S
Y07         8.750   1.000   P
Y06         6.790   1.000   P
Y40         8.770   1.000   P
# 2017  1  8  1 43 40.84  11.6210  141.9042   10.00 -2.00  0.00  0.00  0.00        163
Y03         2.160   1.000   P
Y85         7.180   1.000   P
Y85        10.000   1.000   S
Y09         3.770   1.000   P
Y06         3.180   1.000   P
Y40         2.160   1.000   P
# 2017  1  8  4 54 42.25  12.1987  141.3912   12.10 -2.00  0.00  0.00  0.00        164
Y03         6.770   1.000   P
Y85         3.940   1.000   P
Y85         5.770   1.000   S
Y07         7.720   1.000   P
Y09         8.090   1.000   P
Y40         7.740   1.000   P
# 2017  1  8  6 25 38.02  11.7397  141.5422   10.00 -2.00  0.00  0.00  0.00        165
Y40         8.940   1.000   P
Y07        10.980   1.000   P
Y07        17.210   1.000   S
Y06        10.980   1.000   P
Y06        14.550   1.000   S
# 2017  1  8  7  7 20.71  13.3085  141.6105   10.30 -2.00  0.00  0.00  0.00        166
Y03        27.340   1.000   P
Y85        36.280   1.000   S
Y09        27.870   1.000   P
Y06        27.280   1.000   P
Y40        27.310   1.000   P
# 2017  1  8  9 57 59.18  13.8977  141.7572   10.30 -2.00  0.00  0.00  0.00        167
Y40        38.840   1.000   P
Y06        37.830   1.000   P
Y09        37.470   1.000   P
Y03        38.850   1.000   P
Y85        55.550   1.000   S
# 2017  1  8 10 16 43.56  12.0377  141.5687   20.50 -2.00  0.00  0.00  0.00        168
Y03         7.440   1.000   P
Y85         6.430   1.000   P
Y07         6.440   1.000   P
Y06         6.470   1.000   P
Y09         5.130   1.000   P
Y40        21.160   1.000   S
# 2017  1  8 12 18 28.64  12.1940  141.4182    5.00 -2.00  0.00  0.00  0.00        169
Y85         4.430   1.000   P
Y85         7.810   1.000   S
Y07         8.670   1.000   P
Y40         8.370   1.000   P
Y09        10.000   1.000   P
# 2017  1  8 12 34 36.67  11.6843  141.4923   16.60 -2.00  0.00  0.00  0.00        170
Y03         6.380   1.000   P
Y85         9.320   1.000   P
Y85        17.810   1.000   S
Y09         5.940   1.000   P
Y40         6.340   1.000   P
# 2017  1  8 14  2 47.46  11.7512  141.9978   10.00 -2.00  0.00  0.00  0.00        171
Y85         5.550   1.000   P
Y85         7.700   1.000   S
Y09         9.090   1.000   P
Y06         4.530   1.000   P
Y40         4.530   1.000   P
# 2017  1  8 16 20 42.54  11.8287  141.8623   10.00 -2.00  0.00  0.00  0.00        172
Y09         5.990   1.000   P
Y85        25.760   1.000   S
Y07         6.510   1.000   P
Y06         6.510   1.000   P
Y40         5.470   1.000   P
# 2017  1  8 19  1 55.50  11.7205  141.6445   11.80 -2.00  0.00  0.00  0.00        173
Y03         9.140   1.000   P
Y03        15.110   1.000   S
Y07        10.900   1.000   P
Y07        17.570   1.000   S
Y06         9.330   1.000   P
Y06        15.640   1.000   S
Y40        12.640   1.000   S
# 2017  1  8 23 41 54.70  11.3808  139.9628    8.80 -2.00  0.00  0.00  0.00        174
Y03        47.350   1.000   S
Y09        35.880   1.000   P
Y07        37.320   1.000   P
Y40        37.320   1.000   P
# 2017  1  9  5 36  0.18  11.6228  141.4740   12.90 -2.00  0.00  0.00  0.00        175
Y03        14.020   1.000   S
Y85         7.870   1.000   P
Y07        14.810   1.000   P
Y09         6.850   1.000   P
Y06         6.900   1.000   P
Y40         9.790   1.000   P
# 2017  1  9  7 41 55.04  12.3063  141.7593   51.80 -2.00  0.00  0.00  0.00        176
Y09        13.000   1.000   P
Y07        12.000   1.000   P
Y03        33.630   1.000   S
Y85        12.980   1.000   P
Y06        12.960   1.000   P
# 2017  1  9 17 36 16.26  12.1818  141.3277   10.00 -2.00  0.00  0.00  0.00        177
Y03         5.730   1.000   P
Y85         3.640   1.000   P
Y85         4.250   1.000   S
Y07         5.730   1.000   P
Y06         8.740   1.000   P
# 2017  1  9 19 13 37.38  12.1707  141.7245   10.00 -2.00  0.00  0.00  0.00        178
Y03         5.650   1.000   P
Y07         1.770   1.000   P
Y07         2.160   1.000   S
Y40         6.640   1.000   P
# 2017  1  9 21 20 13.92  12.2550  141.9103   24.90 -2.00  0.00  0.00  0.00        179
Y09        10.070   1.000   P
Y09         9.990   1.000   S
Y85        12.100   1.000   P
Y07         8.900   1.000   S
Y06         8.140   1.000   P
Y40        11.090   1.000   P
# 2017  1  9 23 48  4.75  11.8075  141.6057   12.60 -2.00  0.00  0.00  0.00        180
Y06         9.030   1.000   P
Y06        13.210   1.000   S
Y40         8.640   1.000   P
Y40        15.100   1.000   S
Y09         3.250   1.000   P
# 2017  1 10  0 40  3.63  13.9210  141.3407   10.10 -2.00  0.00  0.00  0.00        181
Y40        39.400   1.000   P
Y06        39.370   1.000   P
Y09        39.410   1.000   P
Y03        37.780   1.000   P
Y85        54.560   1.000   S
# 2017  1 10  1 46 23.80  11.9447  141.6292   12.00 -2.00  0.00  0.00  0.00        182
Y03         8.020   1.000   P
Y03        13.880   1.000   S
Y85         7.100   1.000   P
Y07         7.050   1.000   P
Y06         8.200   1.000   P
Y40         8.220   1.000   P
# 2017  1 10  5 21 58.63  11.8040  141.6832   12.40 -2.00  0.00  0.00  0.00        183
Y03         9.380   1.000   P
Y85        10.370   1.000   P
Y85        21.240   1.000   S
Y07         9.390   1.000   P
Y06         7.790   1.000   P
Y40         7.380   1.000   P
# 2017  1 10 14 21 44.13  12.0688  141.8057   10.00 -2.00  0.00  0.00  0.00        184
Y09         5.860   1.000   P
Y03         5.880   1.000   P
Y85        18.560   1.000   S
Y07         4.900   1.000   P
Y06         5.860   1.000   P
Y40         5.860   1.000   P
# 2017  1 10 14 25  8.15  12.0537  141.5478   49.40 -2.00  0.00  0.00  0.00        185
Y03         9.860   1.000   P
Y85         9.870   1.000   P
Y07         9.890   1.000   P
Y06        11.810   1.000   P
Y06        20.600   1.000   S
Y40        10.860   1.000   P
Y40        21.430   1.000   S
Y09         9.360   1.000   P
# 2017  1 10 16 45 50.84  12.0748  141.4633   47.90 -2.00  0.00  0.00  0.00        186
Y09        12.700   1.000   P
Y09        16.590   1.000   S
Y03        26.920   1.000   S
Y85         9.180   1.000   P
Y85        16.020   1.000   S
Y07        10.190   1.000   P
Y06        12.150   1.000   P
Y06        15.590   1.000   S
Y40        13.150   1.000   P
Y40        18.300   1.000   S
# 2017  1 10 17 27 53.33  12.1797  141.5782   10.00 -2.00  0.00  0.00  0.00        187
Y03        15.670   1.000   S
Y85         6.660   1.000   P
Y09         7.710   1.000   P
Y40         6.710   1.000   P
# 2017  1 10 19 43  2.54  12.2588  141.4965   10.00 -2.00  0.00  0.00  0.00        188
Y85         3.480   1.000   P
Y07         7.110   1.000   P
Y07         7.300   1.000   S
Y06         5.430   1.000   P
# 2017  1 10 23 21 47.60  13.2178  141.2470   10.00 -2.00  0.00  0.00  0.00        189
Y40        27.390   1.000   P
Y09        29.260   1.000   P
Y07        36.460   1.000   S
# 2017  1 10 23 31 54.41  11.9458  141.7132   26.00 -2.00  0.00  0.00  0.00        190
Y09         5.520   1.000   P
Y09         7.800   1.000   S
Y03         9.580   1.000   P
Y03        17.020   1.000   S
Y85         5.540   1.000   P
Y07         7.590   1.000   P
Y07        12.480   1.000   S
Y06         7.590   1.000   P
Y06        12.360   1.000   S
Y40         9.550   1.000   P
Y40        14.190   1.000   S
# 2017  1 11  2 16 51.67  12.0012  141.6043   13.30 -2.00  0.00  0.00  0.00        191
Y03         5.820   1.000   P
Y03        13.290   1.000   S
Y07         6.600   1.000   P
Y06         6.590   1.000   P
Y06        14.740   1.000   S
Y09         4.340   1.000   P
Y09        10.820   1.000   S
# 2017  1 11  3  3 14.67  11.7665  141.4883    5.00 -2.00  0.00  0.00  0.00        192
Y09        17.630   1.000   S
Y85        16.380   1.000   P
Y07        15.330   1.000   P
Y06        13.320   1.000   P
Y40        16.360   1.000   P
# 2017  1 11  7 11 55.41  12.0252  141.5400   10.00 -2.00  0.00  0.00  0.00        193
Y03         6.580   1.000   P
Y85        19.510   1.000   S
Y09         5.640   1.000   P
Y07         6.580   1.000   P
Y40         6.500   1.000   P
# 2017  1 11 12  1 39.87  11.7573  141.6667    5.10 -2.00  0.00  0.00  0.00        194
Y03        12.110   1.000   P
Y03        18.100   1.000   S
Y07        10.930   1.000   P
Y06        10.110   1.000   P
Y40         8.140   1.000   P
# 2017  1 11 14 10 20.07  11.4730  141.9023  101.70 -2.00  0.00  0.00  0.00        195
Y03        20.890   1.000   P
Y03        27.260   1.000   S
Y09        17.920   1.000   P
Y07        16.010   1.000   P
Y06        17.930   1.000   P
Y40        15.940   1.000   P
# 2017  1 11 14 12 41.30  12.2710  141.3853   10.00 -2.00  0.00  0.00  0.00        196
Y85         1.760   1.000   P
Y06         2.050   1.000   P
Y03         5.810   1.000   P
Y03        12.480   1.000   S
# 2017  1 11 14 38 40.76  12.3122  141.1988   12.10 -2.00  0.00  0.00  0.00        197
Y07        11.300   1.000   P
Y07        21.960   1.000   S
Y06        17.340   1.000   P
Y06        30.500   1.000   S
Y03         8.520   1.000   P
Y03        14.790   1.000   S
# 2017  1 11 14 43 36.44  12.2097  141.2148    5.00 -2.00  0.00  0.00  0.00        198
Y07        12.100   1.000   P
Y07        21.530   1.000   S
Y06        16.560   1.000   P
Y06        29.890   1.000   S
Y09        12.980   1.000   P
Y09        22.290   1.000   S
Y03         7.770   1.000   P
Y03        14.020   1.000   S
# 2017  1 11 14 45 32.74  11.5492  141.1040   11.60 -2.00  0.00  0.00  0.00        199
Y85         5.280   1.000   P
Y06        18.040   1.000   P
Y06        31.040   1.000   S
Y09        13.990   1.000   P
Y09        23.490   1.000   S
Y40         5.210   1.000   P
Y03         8.960   1.000   P
Y03        15.170   1.000   S
# 2017  1 11 14 47 18.97  12.1857  141.2388    5.00 -2.00  0.00  0.00  0.00        200
Y07        12.000   1.000   P
Y07        20.710   1.000   S
Y09        11.920   1.000   P
Y09        21.380   1.000   S
Y03         7.280   1.000   P
Y03        13.180   1.000   S
# 2017  1 11 14 55 54.57  12.0863  141.6665   52.60 -2.00  0.00  0.00  0.00        201
Y09        16.380   1.000   S
Y85        11.450   1.000   P
Y07        15.820   1.000   S
Y06        11.290   1.000   P
Y40        12.910   1.000   P
Y40        14.840   1.000   S
# 2017  1 11 14 58 50.12  12.3655  141.0083    9.70 -2.00  0.00  0.00  0.00        202
Y03        19.870   1.000   S
Y07        17.400   1.000   P
Y06        22.310   1.000   P
Y09        28.030   1.000   S
# 2017  1 11 15  3 40.49  12.2818  141.1028   19.60 -2.00  0.00  0.00  0.00        203
Y85         5.480   1.000   P
Y07        13.420   1.000   P
Y07        22.710   1.000   S
Y06        17.630   1.000   P
Y06        30.480   1.000   S
Y09        13.590   1.000   P
Y09        23.200   1.000   S
Y03         8.510   1.000   P
Y03        15.040   1.000   S
# 2017  1 11 15  7 11.79  12.1242  141.2967   32.60 -2.00  0.00  0.00  0.00        204
Y85         6.240   1.000   P
Y07        18.270   1.000   S
Y06        27.140   1.000   S
Y09        10.200   1.000   P
Y40         6.740   1.000   P
Y03         5.220   1.000   P
Y03        11.550   1.000   S
# 2017  1 11 15  6 59.94  11.6133  140.7748   10.00 -2.00  0.00  0.00  0.00        205
Y85        18.090   1.000   P
Y07        18.000   1.000   P
Y06        26.360   1.000   P
Y09        31.940   1.000   S
# 2017  1 11 15  9  4.38  12.7535  142.3387   10.00 -2.00  0.00  0.00  0.00        206
Y85        21.610   1.000   P
Y07        27.180   1.000   S
Y06        22.610   1.000   P
Y40        23.610   1.000   P
# 2017  1 11 15 23 55.62  12.1787  141.6992    5.00 -2.00  0.00  0.00  0.00        207
Y40        11.430   1.000   P
Y09        16.370   1.000   S
Y85        10.400   1.000   P
Y06        11.390   1.000   P
# 2017  1 11 15 44 15.53  12.0330  141.8220   49.80 -2.00  0.00  0.00  0.00        208
Y40        11.470   1.000   P
Y06         9.470   1.000   P
Y09        15.650   1.000   S
Y85        17.460   1.000   P
Y07         6.470   1.000   P
Y07        14.980   1.000   S
# 2017  1 11 15 51 56.90  12.0377  141.7570   10.00 -2.00  0.00  0.00  0.00        209
Y85        10.130   1.000   P
Y40        10.130   1.000   P
Y03        12.110   1.000   P
Y03        18.020   1.000   S
# 2017  1 11 16  9 35.26  12.1650  141.2510    5.10 -2.00  0.00  0.00  0.00        210
Y03         6.980   1.000   P
Y07        20.410   1.000   S
Y06        15.690   1.000   P
Y06        28.250   1.000   S
Y09        11.840   1.000   P
Y09        20.690   1.000   S
# 2017  1 11 16 19 17.73  12.0862  141.4612   10.00 -2.00  0.00  0.00  0.00        211
Y03         5.250   1.000   P
Y03        11.330   1.000   S
Y85         6.210   1.000   P
Y09         7.360   1.000   P
Y40         7.300   1.000   P
# 2017  1 11 16 23  5.91  12.1948  141.1882    5.00 -2.00  0.00  0.00  0.00        212
Y07        12.700   1.000   P
Y07        22.250   1.000   S
Y09        12.870   1.000   P
Y09        22.800   1.000   S
Y40        18.210   1.000   P
Y03         8.010   1.000   P
# 2017  1 11 17 22 59.38  12.1267  141.2928   35.70 -2.00  0.00  0.00  0.00        213
Y85         6.630   1.000   P
Y07         9.620   1.000   P
Y07        18.750   1.000   S
Y06        14.470   1.000   P
Y06        26.700   1.000   S
Y09        10.510   1.000   P
Y09        19.870   1.000   S
Y40        15.570   1.000   P
Y03         5.620   1.000   P
Y03        12.250   1.000   S
# 2017  1 11 17 40 31.27  11.6070  141.6230   12.30 -2.00  0.00  0.00  0.00        214
Y09         6.730   1.000   P
Y03        10.770   1.000   P
Y03        16.930   1.000   S
Y40         6.740   1.000   P
# 2017  1 11 17 43 51.22  12.2207  141.0630   36.70 -2.00  0.00  0.00  0.00        215
Y40        15.810   1.000   P
Y03        16.130   1.000   S
Y09        15.780   1.000   P
Y09        24.920   1.000   S
Y85        16.820   1.000   P
Y06        15.840   1.000   P
Y07        25.100   1.000   S
# 2017  1 11 17 50 59.89  12.1773  141.1922   38.60 -2.00  0.00  0.00  0.00        216
Y03         8.080   1.000   P
Y03        14.050   1.000   S
Y85         7.120   1.000   P
Y07        12.070   1.000   P
Y07        21.640   1.000   S
Y06        16.590   1.000   P
Y06        29.610   1.000   S
Y09        12.570   1.000   P
Y09        22.140   1.000   S
Y40        17.830   1.000   P
Y40        31.210   1.000   S
# 2017  1 11 17 54  8.67  11.9910  143.1522    9.30 -2.00  0.00  0.00  0.00        217
Y85        28.340   1.000   P
Y07        31.280   1.000   P
Y07        33.440   1.000   S
Y06        39.110   1.000   S
Y09        29.340   1.000   P
Y40        42.730   1.000   S
# 2017  1 11 17 59 21.14  12.3190  139.6598    9.50 -2.00  0.00  0.00  0.00        218
Y06        60.540   1.000   P
Y09        67.480   1.000   S
Y07        68.530   1.000   S
# 2017  1 11 18  4 15.35  12.0243  141.1452   37.00 -2.00  0.00  0.00  0.00        219
Y85         8.660   1.000   P
Y03         6.640   1.000   P
Y03        11.610   1.000   S
Y07        23.800   1.000   S
Y06        15.650   1.000   P
Y06        29.930   1.000   S
# 2017  1 11 18 31 24.60  11.3877  140.9987   10.90 -2.00  0.00  0.00  0.00        220
Y09        17.410   1.000   P
Y03        20.810   1.000   S
Y85        18.410   1.000   P
Y07        19.390   1.000   P
Y06        23.480   1.000   P
Y40        17.180   1.000   P
# 2017  1 11 18 57 24.29  12.0835  141.5948   67.80 -2.00  0.00  0.00  0.00        221
Y09        11.710   1.000   P
Y03        13.010   1.000   P
Y03        13.060   1.000   S
Y85        12.740   1.000   P
Y07        11.730   1.000   P
Y07        20.500   1.000   S
Y06        15.690   1.000   P
Y40        13.730   1.000   P
# 2017  1 11 19 49 55.04  11.8705  141.3912    5.00 -2.00  0.00  0.00  0.00        222
Y40        12.970   1.000   P
Y09        12.030   1.000   P
Y85        11.960   1.000   P
Y07        22.250   1.000   S
Y06        12.500   1.000   P
# 2017  1 11 19 51 22.39  11.9745  141.5432    5.00 -2.00  0.00  0.00  0.00        223
Y03         7.620   1.000   P
Y03        13.690   1.000   S
Y85         9.620   1.000   P
Y07         8.670   1.000   P
Y06         9.630   1.000   P
Y09         9.610   1.000   P
Y40         8.660   1.000   P
