# 2017  1 13  7 32 53.56  12.0742  141.5385    5.60 -2.00  0.00  0.00  0.00        301
Y03         4.430   1.000   P
Y03        14.450   1.000   S
Y85         7.450   1.000   P
Y07         7.510   1.000   P
Y06         7.480   1.000   P
Y09         6.490   1.000   P
Y40         9.050   1.000   P
# 2017  1 13  7 46 50.08  12.0392  141.5097   57.60 -2.00  0.00  0.00  0.00        302
Y09         9.930   1.000   P
Y03        10.890   1.000   P
Y03        10.950   1.000   S
Y85        10.960   1.000   P
Y07        19.340   1.000   S
Y06        13.940   1.000   P
Y40        10.950   1.000   P
# 2017  1 13  8 21  5.36  11.8472  141.0248    5.00 -2.00  0.00  0.00  0.00        303
Y85        12.660   1.000   P
Y07        14.430   1.000   P
Y06        19.020   1.000   P
Y40        34.970   1.000   S
Y09        14.630   1.000   P
Y09        24.650   1.000   S
# 2017  1 13  8 23 54.46  11.7073  141.9808   73.10 -2.00  0.00  0.00  0.00        304
Y03        17.720   1.000   P
Y03        23.950   1.000   S
Y09        13.560   1.000   P
Y07        12.610   1.000   P
Y06        12.570   1.000   P
Y40        11.970   1.000   P
# 2017  1 13  9 10 17.85  11.9333  141.9352   10.00 -2.00  0.00  0.00  0.00        305
Y40         2.170   1.000   P
Y85         3.170   1.000   P
Y85         5.510   1.000   S
Y06         2.150   1.000   P
# 2017  1 13  9 22 49.88  12.0740  141.6540   19.70 -2.00  0.00  0.00  0.00        306
Y09         4.140   1.000   P
Y85         8.130   1.000   P
Y85        11.660   1.000   S
Y07         4.140   1.000   P
Y06         5.100   1.000   P
# 2017  1 13  9 30 28.14  11.9315  141.4565    8.60 -2.00  0.00  0.00  0.00        307
Y03         5.850   1.000   P
Y03         9.250   1.000   S
Y85         7.910   1.000   P
Y07         8.900   1.000   P
Y07        17.530   1.000   S
Y06         9.350   1.000   P
Y09         7.850   1.000   P
Y40         8.870   1.000   P
# 2017  1 13  9 50 53.08  11.7627  141.5862    7.50 -2.00  0.00  0.00  0.00        308
Y03         8.500   1.000   P
Y03        14.640   1.000   S
Y07        12.310   1.000   P
Y09         3.000   1.000   P
# 2017  1 13 10  4  4.74  11.9907  141.6500   10.00 -2.00  0.00  0.00  0.00        309
Y85         9.230   1.000   P
Y03        12.320   1.000   P
Y03        12.710   1.000   S
Y06         7.250   1.000   P
# 2017  1 13 10  5 14.47  13.0430  141.9487    9.10 -2.00  0.00  0.00  0.00        310
Y03        22.430   1.000   P
Y03        22.590   1.000   S
Y85        22.570   1.000   P
Y07        29.740   1.000   S
Y06        24.540   1.000   P
Y09        20.540   1.000   P
Y40        27.250   1.000   P
# 2017  1 13 10 19 22.52  12.1833  141.2725    5.20 -2.00  0.00  0.00  0.00        311
Y07        11.500   1.000   P
Y07        20.390   1.000   S
Y06        15.480   1.000   P
Y06        28.770   1.000   S
Y09        11.460   1.000   P
Y03         6.910   1.000   P
Y03        13.090   1.000   S
Y40        17.480   1.000   P
# 2017  1 13 13 38 18.79  11.4585  142.3158   13.80 -2.00  0.00  0.00  0.00        312
Y07        17.330   1.000   P
Y07        26.170   1.000   S
Y09        16.660   1.000   P
Y09        26.560   1.000   S
Y40         7.180   1.000   P
Y03        11.230   1.000   P
Y03        17.600   1.000   S
# 2017  1 13 14 11 10.23  12.0345  141.6428    9.90 -2.00  0.00  0.00  0.00        313
Y03         8.770   1.000   P
Y03        15.330   1.000   S
Y85         9.060   1.000   P
Y07         5.760   1.000   P
# 2017  1 13 15 12 45.60  12.0017  141.6063    7.10 -2.00  0.00  0.00  0.00        314
Y03         8.410   1.000   P
Y03        14.700   1.000   S
Y85         9.410   1.000   P
Y06         9.430   1.000   P
Y09         9.460   1.000   P
Y40         9.750   1.000   P
# 2017  1 13 15 43 42.23  12.2687  141.3842   10.00 -2.00  0.00  0.00  0.00        315
Y09         1.770   1.000   P
Y03         5.590   1.000   P
Y03        11.760   1.000   S
Y85         1.760   1.000   P
Y06         1.790   1.000   P
# 2017  1 13 15 46 22.46  11.8985  141.5638   10.00 -2.00  0.00  0.00  0.00        316
Y03         5.540   1.000   P
Y03        11.800   1.000   S
Y85         9.570   1.000   P
Y06         9.530   1.000   P
Y40         8.820   1.000   P
# 2017  1 13 17 45  8.00  13.1028  141.9933    9.70 -2.00  0.00  0.00  0.00        317
Y06        23.060   1.000   P
Y09        42.950   1.000   S
Y85        22.030   1.000   P
Y03        24.990   1.000   P
Y03        34.980   1.000   S
# 2017  1 13 19 44 58.53  11.6058  141.0277    5.10 -2.00  0.00  0.00  0.00        318
Y85        14.460   1.000   P
Y03        11.470   1.000   P
Y03        17.940   1.000   S
Y06        12.510   1.000   P
Y09        15.460   1.000   P
Y09        25.660   1.000   S
Y40        33.780   1.000   S
# 2017  1 13 21 20 59.21  12.2092  141.6120    6.20 -2.00  0.00  0.00  0.00        319
Y09         8.760   1.000   P
Y09        16.980   1.000   S
Y03         9.790   1.000   P
Y03        18.480   1.000   S
Y85         7.820   1.000   P
Y07         7.770   1.000   P
Y06         9.580   1.000   P
Y06        19.030   1.000   S
Y40        10.850   1.000   P
Y40        21.830   1.000   S
# 2017  1 13 22 11 22.44  12.0278  141.6083    9.90 -2.00  0.00  0.00  0.00        320
Y03         7.580   1.000   P
Y03         8.750   1.000   S
Y85         9.550   1.000   P
Y07         5.420   1.000   P
Y07         6.050   1.000   S
Y06         9.580   1.000   P
Y40         8.660   1.000   P
# 2017  1 13 22 40  4.15  11.9740  141.4757   12.20 -2.00  0.00  0.00  0.00        321
Y03         5.880   1.000   P
Y03         8.830   1.000   S
Y85         7.870   1.000   P
Y07         6.850   1.000   P
Y06        10.850   1.000   P
Y40         8.860   1.000   P
Y40        15.360   1.000   S
Y09         7.900   1.000   P
# 2017  1 13 23 24 54.52  12.0523  141.4583   13.90 -2.00  0.00  0.00  0.00        322
Y03         3.490   1.000   P
Y03         9.640   1.000   S
Y85         6.540   1.000   P
Y07         5.980   1.000   P
Y07        12.990   1.000   S
Y09         6.510   1.000   P
# 2017  1 13 23 47 17.99  11.7702  141.6797   14.40 -2.00  0.00  0.00  0.00        323
Y03        10.020   1.000   P
Y03        15.930   1.000   S
Y09         7.460   1.000   P
Y07         8.010   1.000   P
Y06         8.030   1.000   P
Y40         7.060   1.000   P
# 2017  1 14  0 21  7.25  12.2602  141.0935   11.90 -2.00  0.00  0.00  0.00        324
Y07        13.020   1.000   P
Y07        22.790   1.000   S
Y06        17.330   1.000   P
Y06        33.090   1.000   S
Y03         8.240   1.000   P
Y03        14.120   1.000   S
# 2017  1 14  0 42  0.79  12.0412  141.6330    7.40 -2.00  0.00  0.00  0.00        325
Y85         7.210   1.000   P
Y85        17.240   1.000   S
Y09         4.680   1.000   P
Y07         6.250   1.000   P
# 2017  1 14  0 43 23.05  12.0475  141.4307    5.00 -2.00  0.00  0.00  0.00        326
Y03         4.940   1.000   P
Y03        11.110   1.000   S
Y85         7.260   1.000   P
Y09         8.980   1.000   P
Y40         8.970   1.000   P
# 2017  1 14  1 19 37.20  12.0412  141.8528  114.90 -2.00  0.00  0.00  0.00        327
Y03        20.780   1.000   P
Y03        25.910   1.000   S
Y09        17.830   1.000   P
Y07        17.870   1.000   P
Y06        17.860   1.000   P
Y40        17.830   1.000   P
# 2017  1 14  2  5 19.72  11.6005  141.8640   10.00 -2.00  0.00  0.00  0.00        328
Y03         6.260   1.000   P
Y85         5.310   1.000   P
Y07         4.220   1.000   P
Y06         4.290   1.000   P
Y06        14.200   1.000   S
Y40         2.300   1.000   P
# 2017  1 14  5 56  3.46  12.0205  140.4027   10.00 -2.00  0.00  0.00  0.00        329
Y09        25.540   1.000   P
Y03        26.860   1.000   S
Y07        25.520   1.000   P
Y06        29.800   1.000   P
# 2017  1 14  6 48 43.37  12.0822  141.6265   48.00 -2.00  0.00  0.00  0.00        330
Y03        10.670   1.000   P
Y85        10.620   1.000   P
Y07         8.640   1.000   P
Y07        14.970   1.000   S
Y06         9.630   1.000   P
Y40        23.900   1.000   S
Y09        10.650   1.000   P
Y09        15.260   1.000   S
# 2017  1 14  7 12 37.58  12.2047  141.2227   16.70 -2.00  0.00  0.00  0.00        331
Y85         4.210   1.000   P
Y07         8.400   1.000   P
Y06        27.770   1.000   S
Y40         6.440   1.000   P
Y03         4.420   1.000   P
Y03        10.590   1.000   S
# 2017  1 14  7 12 14.44  13.3630  141.5017   10.00 -2.00  0.00  0.00  0.00        332
Y09        36.570   1.000   P
Y07        41.590   1.000   S
Y06        36.550   1.000   P
# 2017  1 14  7 49 40.91  11.9825  141.6490   12.90 -2.00  0.00  0.00  0.00        333
Y03         7.110   1.000   P
Y03        15.000   1.000   S
Y85        10.980   1.000   P
Y09         8.120   1.000   P
Y07        10.220   1.000   P
Y07        10.570   1.000   S
Y06         8.340   1.000   P
Y40         8.050   1.000   P
# 2017  1 14  8 30 58.32  11.7832  141.7048   10.00 -2.00  0.00  0.00  0.00        334
Y03         9.680   1.000   P
Y07         9.700   1.000   P
Y40         8.680   1.000   P
Y40        11.560   1.000   S
# 2017  1 14  8 40  3.31  11.9027  141.5418    5.20 -2.00  0.00  0.00  0.00        335
Y03         7.690   1.000   P
Y03        13.440   1.000   S
Y85        10.680   1.000   P
Y07         9.780   1.000   P
Y06         9.750   1.000   P
Y09         9.780   1.000   P
Y40         9.750   1.000   P
# 2017  1 14  8 54 48.66  12.1078  141.4833    7.50 -2.00  0.00  0.00  0.00        336
Y03         6.340   1.000   P
Y03        12.610   1.000   S
Y85         6.450   1.000   P
Y07         7.330   1.000   P
Y06         6.380   1.000   P
Y09         7.360   1.000   P
Y40         7.350   1.000   P
# 2017  1 14 10 20 51.35  11.9418  141.5072    5.00 -2.00  0.00  0.00  0.00        337
Y40         7.390   1.000   P
Y03         6.640   1.000   P
Y03        12.470   1.000   S
Y09         9.690   1.000   P
Y85         9.660   1.000   P
Y06         8.590   1.000   P
Y07         9.610   1.000   P
# 2017  1 14 15 54 47.41  12.0618  141.4677    9.80 -2.00  0.00  0.00  0.00        338
Y85         6.620   1.000   P
Y07         7.600   1.000   P
Y06        11.800   1.000   P
Y40        16.930   1.000   S
Y09         6.600   1.000   P
# 2017  1 14 16  3 54.64  12.0487  141.7718   32.40 -2.00  0.00  0.00  0.00        339
Y09         6.420   1.000   P
Y03        11.420   1.000   P
Y03        17.660   1.000   S
Y85         6.470   1.000   P
Y07         6.400   1.000   P
Y06         7.360   1.000   P
Y40         7.350   1.000   P
# 2017  1 14 16 16 31.75  12.1585  141.4802   13.40 -2.00  0.00  0.00  0.00        340
Y03         6.260   1.000   P
Y03        12.320   1.000   S
Y85         5.260   1.000   P
Y07         6.110   1.000   P
Y06         8.190   1.000   P
Y09         7.770   1.000   P
# 2017  1 14 16 48  1.97  12.0547  141.3663    9.90 -2.00  0.00  0.00  0.00        341
Y85         6.080   1.000   P
Y03         3.020   1.000   P
Y03         9.000   1.000   S
Y09         8.010   1.000   P
# 2017  1 14 17 40 28.17  11.8627  141.6025    9.60 -2.00  0.00  0.00  0.00        342
Y03         7.830   1.000   P
Y03        13.840   1.000   S
Y85         8.860   1.000   P
Y07         9.160   1.000   P
Y06         8.860   1.000   P
Y40         9.820   1.000   P
# 2017  1 14 17 48 52.72  12.1322  141.5435    7.80 -2.00  0.00  0.00  0.00        343
Y09         6.260   1.000   P
Y09        15.040   1.000   S
Y03         7.290   1.000   P
Y85         7.290   1.000   P
Y07         9.420   1.000   S
Y06        10.290   1.000   P
Y40         8.350   1.000   P
# 2017  1 14 18  8 28.09  12.1460  141.4792    7.40 -2.00  0.00  0.00  0.00        344
Y03         7.590   1.000   P
Y03        13.360   1.000   S
Y85         5.880   1.000   P
Y07         7.940   1.000   P
Y06         8.980   1.000   P
Y40         8.940   1.000   P
Y09         7.950   1.000   P
# 2017  1 14 22 32 24.79  12.0222  141.4185    7.90 -2.00  0.00  0.00  0.00        345
Y85         7.180   1.000   P
Y03         3.200   1.000   P
Y03         8.960   1.000   S
Y09         7.230   1.000   P
Y06         5.150   1.000   P
# 2017  1 14 23 54 15.33  12.1103  141.4338   11.90 -2.00  0.00  0.00  0.00        346
Y03         7.680   1.000   P
Y03         8.990   1.000   S
Y85        11.660   1.000   P
Y07         6.670   1.000   P
Y06        11.680   1.000   P
Y40        12.670   1.000   P
Y09         7.670   1.000   P
Y09        16.960   1.000   S
# 2017  1 15  0  4 56.54  11.9957  141.7928   10.90 -2.00  0.00  0.00  0.00        347
Y09         4.460   1.000   P
Y07         9.580   1.000   P
Y07         9.810   1.000   S
Y06         5.450   1.000   P
# 2017  1 15  0 10 32.46  12.1733  141.7167   10.00 -2.00  0.00  0.00  0.00        348
Y07         1.830   1.000   P
Y07         1.970   1.000   S
Y06         4.820   1.000   P
Y40         4.780   1.000   P
# 2017  1 15  0 13 58.55  11.9220  141.8080   10.00 -2.00  0.00  0.00  0.00        349
Y40         8.450   1.000   P
Y06         5.380   1.000   P
Y85        10.450   1.000   P
Y85        23.580   1.000   S
# 2017  1 15  0 28  3.43  12.1678  141.7443   10.00 -2.00  0.00  0.00  0.00        350
Y07         1.690   1.000   P
Y07         2.040   1.000   S
Y06         2.240   1.000   P
Y40         4.590   1.000   P
# 2017  1 15  1 51  9.18  11.6038  141.3428    5.10 -2.00  0.00  0.00  0.00        351
Y09        19.540   1.000   S
Y85        15.890   1.000   P
Y06        13.820   1.000   P
Y40        14.840   1.000   P
# 2017  1 15  9 45 11.71  12.0740  141.8172   35.20 -2.00  0.00  0.00  0.00        352
Y09         7.320   1.000   P
Y03        12.420   1.000   P
Y03        17.820   1.000   S
Y85         7.320   1.000   P
Y07         6.610   1.000   P
Y06         7.320   1.000   P
Y40         7.290   1.000   P
# 2017  1 15 10 44 41.46  12.3852  141.6350   12.70 -2.00  0.00  0.00  0.00        353
Y09         7.580   1.000   P
Y09        18.540   1.000   S
Y03         8.600   1.000   P
Y85         7.570   1.000   P
Y85        12.290   1.000   S
Y06         5.550   1.000   P
Y07         4.560   1.000   P
Y40        24.660   1.000   S
# 2017  1 15 12 15 43.76  12.0677  141.4778   10.00 -2.00  0.00  0.00  0.00        354
Y03         5.240   1.000   P
Y03        11.200   1.000   S
Y85         6.270   1.000   P
Y07         6.260   1.000   P
Y09         6.240   1.000   P
# 2017  1 15 13  5 22.76  11.9225  141.6672   49.30 -2.00  0.00  0.00  0.00        355
Y03        10.230   1.000   P
Y03        16.220   1.000   S
Y09         8.350   1.000   P
Y07         8.300   1.000   P
Y40         8.270   1.000   P
# 2017  1 15 13  7 30.84  12.1305  141.5070    5.40 -2.00  0.00  0.00  0.00        356
Y03         8.180   1.000   P
Y03        14.630   1.000   S
Y85         7.170   1.000   P
Y07         7.180   1.000   P
Y06         7.180   1.000   P
Y09         8.190   1.000   P
# 2017  1 15 13 12 18.54  12.1702  141.1842   39.90 -2.00  0.00  0.00  0.00        357
Y85        11.450   1.000   P
Y07        12.620   1.000   P
Y06        16.500   1.000   P
Y06        29.390   1.000   S
Y09        12.460   1.000   P
Y09        22.280   1.000   S
Y40        18.230   1.000   P
Y03         8.190   1.000   P
Y03        14.230   1.000   S
# 2017  1 15 13 49 26.38  11.8508  141.5828    5.10 -2.00  0.00  0.00  0.00        358
Y03         8.630   1.000   P
Y03        15.030   1.000   S
Y85        10.650   1.000   P
Y07        10.180   1.000   P
Y06        10.660   1.000   P
Y40        10.670   1.000   P
# 2017  1 15 14 10 29.44  11.8925  141.7713   15.60 -2.00  0.00  0.00  0.00        359
Y03        10.580   1.000   P
Y03        16.980   1.000   S
Y09         7.600   1.000   P
Y07         7.620   1.000   P
Y40         7.590   1.000   P
# 2017  1 15 14 32 12.96  12.2518  141.2153   28.50 -2.00  0.00  0.00  0.00        360
Y85         5.080   1.000   P
Y06        16.960   1.000   P
Y06        29.670   1.000   S
Y40         7.040   1.000   P
Y03         8.030   1.000   P
Y03        14.050   1.000   S
# 2017  1 15 14 35 45.08  13.9673  141.0965   10.00 -2.00  0.00  0.00  0.00        361
Y40        48.910   1.000   P
Y07        62.520   1.000   S
Y06        50.930   1.000   P
# 2017  1 15 18 16  9.78  11.9533  141.5845   28.00 -2.00  0.00  0.00  0.00        362
Y09         9.280   1.000   P
Y03         8.230   1.000   P
Y03        13.560   1.000   S
Y85         9.250   1.000   P
Y07         8.230   1.000   P
Y06         9.260   1.000   P
Y40         9.260   1.000   P
# 2017  1 15 18 37 53.52  12.1003  141.3432    5.00 -2.00  0.00  0.00  0.00        363
Y03         5.460   1.000   P
Y03        11.360   1.000   S
Y85         7.510   1.000   P
Y07         6.420   1.000   P
Y06        14.490   1.000   P
Y09        19.490   1.000   S
# 2017  1 15 19 20 50.29  13.7630  141.2073   10.00 -2.00  0.00  0.00  0.00        364
Y03        34.700   1.000   P
Y85        50.120   1.000   S
Y09        35.740   1.000   P
Y40        35.700   1.000   P
# 2017  1 15 20 38 59.01  12.0470  141.5322    6.70 -2.00  0.00  0.00  0.00        365
Y03         7.520   1.000   P
Y85         8.020   1.000   P
Y09         7.520   1.000   P
Y06        11.000   1.000   P
Y06        19.240   1.000   S
Y40         7.570   1.000   P
# 2017  1 15 21 28 44.47  12.7035  140.3355   10.00 -2.00  0.00  0.00  0.00        366
Y06        46.590   1.000   P
Y09        48.600   1.000   P
Y03        75.430   1.000   S
# 2017  1 15 22 10 38.20  12.0267  141.7303   64.50 -2.00  0.00  0.00  0.00        367
Y09        10.820   1.000   P
Y03        13.780   1.000   P
Y03        19.540   1.000   S
Y85        11.730   1.000   P
Y07        11.160   1.000   P
Y06        11.820   1.000   P
Y40        10.840   1.000   P
# 2017  1 15 23  5 16.38  12.0387  141.4445    5.00 -2.00  0.00  0.00  0.00        368
Y03         5.610   1.000   P
Y03        11.130   1.000   S
Y85         7.610   1.000   P
Y07         8.680   1.000   P
Y09         9.920   1.000   P
Y40         8.660   1.000   P
# 2017  1 15 23 13  0.81  11.5743  141.8362    7.80 -2.00  0.00  0.00  0.00        369
Y03         7.180   1.000   P
Y09         8.220   1.000   P
Y07         7.210   1.000   P
Y06        16.310   1.000   S
Y40         3.210   1.000   P
Y40         5.380   1.000   S
# 2017  1 15 23 58 29.53  11.6017  141.8683    9.90 -2.00  0.00  0.00  0.00        370
Y03         8.470   1.000   P
Y09         7.760   1.000   P
Y07         8.460   1.000   P
Y06         8.450   1.000   P
Y06        14.450   1.000   S
Y40         2.490   1.000   P
Y40         3.290   1.000   S
# 2017  1 16  1 30 50.00  12.0700  141.4018    5.40 -2.00  0.00  0.00  0.00        371
Y03         6.150   1.000   P
Y03        10.270   1.000   S
Y07         9.070   1.000   P
Y07        16.840   1.000   S
Y06        13.990   1.000   P
Y06        23.310   1.000   S
Y09         8.660   1.000   P
Y09        14.870   1.000   S
Y40        15.950   1.000   P
Y40        28.560   1.000   S
# 2017  1 16  6 34  6.12  12.3250  141.1455   12.80 -2.00  0.00  0.00  0.00        372
Y03         8.880   1.000   P
Y03        15.550   1.000   S
Y07         7.900   1.000   P
Y06        18.080   1.000   P
Y40        19.130   1.000   P
Y09        14.050   1.000   P
Y09        24.120   1.000   S
# 2017  1 16  7 33 35.35  12.1712  141.5980    6.60 -2.00  0.00  0.00  0.00        373
Y03         9.650   1.000   P
Y03        15.950   1.000   S
Y85         7.650   1.000   P
Y07         4.640   1.000   P
Y40         7.680   1.000   P
Y09         7.650   1.000   P
# 2017  1 16 10 29 14.99  11.8150  141.5495   12.00 -2.00  0.00  0.00  0.00        374
Y85        12.000   1.000   P
Y85        18.060   1.000   S
Y07        10.040   1.000   P
Y40         8.970   1.000   P
# 2017  1 16 10 39 59.24  12.8508  140.2938   10.00 -2.00  0.00  0.00  0.00        375
Y06        39.820   1.000   P
Y09        38.750   1.000   P
Y85        60.070   1.000   S
Y07        36.770   1.000   P
# 2017  1 16 13 10 57.01  11.8132  141.3983   13.10 -2.00  0.00  0.00  0.00        376
Y85        10.020   1.000   P
Y07        14.840   1.000   P
Y06        21.880   1.000   S
Y40        11.940   1.000   P
