# 2016 12 15 14 25 14.36  11.8803  141.4615   12.00 -2.00  0.00  0.00  0.00          1
Y85        10.390   1.000   P
Y85        15.440   1.000   S
Y03         4.620   1.000   P
Y09         4.730   1.000   P
# 2016 12 15 23 59 57.03  11.9360  141.7050   10.40 -2.00  0.00  0.00  0.00          2
Y03         9.950   1.000   P
Y03        16.520   1.000   S
Y85         8.990   1.000   P
Y07         7.010   1.000   P
Y07        12.260   1.000   S
Y06         7.040   1.000   P
Y06        12.580   1.000   S
Y40         8.990   1.000   P
# 2016 12 16  0 10 28.14  11.9358  141.6310   12.40 -2.00  0.00  0.00  0.00          3
Y85         9.850   1.000   P
Y40         9.830   1.000   P
Y09         3.870   1.000   P
Y09         4.420   1.000   S
# 2016 12 16  4 47  1.23  12.2800  141.4922   10.00 -2.00  0.00  0.00  0.00          4
Y03         6.760   1.000   P
Y03        17.550   1.000   S
Y85         4.790   1.000   P
Y07         6.680   1.000   P
Y40         6.120   1.000   P
# 2016 12 16  7 15 53.56  13.0358  142.1503   10.00 -2.00  0.00  0.00  0.00          5
Y40        19.100   1.000   P
Y03        46.530   1.000   S
Y09        24.920   1.000   P
Y85        20.410   1.000   P
# 2016 12 16 10  6  8.14  12.1387  141.9585    6.50 -2.00  0.00  0.00  0.00          6
Y06         5.810   1.000   P
Y06        10.150   1.000   S
Y09         8.960   1.000   P
Y09        16.000   1.000   S
Y03        15.790   1.000   P
Y03        26.570   1.000   S
Y85         9.900   1.000   P
# 2016 12 16 10 25 47.44  12.0468  141.6213   10.00 -2.00  0.00  0.00  0.00          7
Y03         7.860   1.000   P
Y85         8.550   1.000   P
Y07         8.130   1.000   P
Y07         8.490   1.000   S
Y06         8.550   1.000   P
# 2016 12 16 13 13 41.72  11.6402  141.0623   10.00 -2.00  0.00  0.00  0.00          8
Y85        13.330   1.000   P
Y06        23.090   1.000   P
Y06        34.120   1.000   S
Y40        17.240   1.000   P
Y40        22.920   1.000   S
# 2016 12 16 13 18 17.90  11.9808  141.7360   32.90 -2.00  0.00  0.00  0.00          9
Y03         8.060   1.000   P
Y03        18.640   1.000   S
Y09         5.730   1.000   P
Y09        10.000   1.000   S
Y07         4.830   1.000   P
Y07        12.790   1.000   S
Y06         5.180   1.000   P
Y06        13.310   1.000   S
# 2016 12 16 15 43 34.53  12.1168  141.4892    7.10 -2.00  0.00  0.00  0.00         10
Y03         7.460   1.000   P
Y85         6.470   1.000   P
Y85        11.310   1.000   S
Y07         8.930   1.000   P
Y06         7.510   1.000   P
Y09         7.490   1.000   P
# 2016 12 16 15 56 10.20  12.2048  141.6482    5.00 -2.00  0.00  0.00  0.00         11
Y03        10.800   1.000   P
Y85         8.800   1.000   P
Y06         8.800   1.000   P
Y06        18.690   1.000   S
Y09         6.800   1.000   P
Y09        15.060   1.000   S
# 2016 12 16 17 38 24.91  12.0323  141.7080   13.90 -2.00  0.00  0.00  0.00         12
Y03        10.940   1.000   P
Y03        16.680   1.000   S
Y85         6.120   1.000   P
Y07         5.100   1.000   P
Y06         7.110   1.000   P
Y40         5.560   1.000   P
# 2016 12 16 23 57 59.04  12.0745  141.3242    5.10 -2.00  0.00  0.00  0.00         13
Y85         9.540   1.000   P
Y85        11.260   1.000   S
Y09         9.890   1.000   P
Y09        17.210   1.000   S
Y03         5.020   1.000   P
Y03         8.830   1.000   S
# 2016 12 17  5 36 41.04  12.3192  141.6548    5.00 -2.00  0.00  0.00  0.00         14
Y09         9.970   1.000   P
Y09        18.990   1.000   S
Y03        19.470   1.000   S
Y85         8.990   1.000   P
Y06        11.230   1.000   P
# 2016 12 17  5 38 13.36  12.3628  141.5893   38.30 -2.00  0.00  0.00  0.00         15
Y07         7.750   1.000   P
Y07        12.680   1.000   S
Y09        11.620   1.000   P
Y09        20.350   1.000   S
Y03        21.000   1.000   S
Y06        12.720   1.000   P
Y06        22.430   1.000   S
Y40        17.560   1.000   P
Y40        24.710   1.000   S
# 2016 12 17  8 57 58.77  12.2882  141.6283   10.00 -2.00  0.00  0.00  0.00         16
Y03         8.860   1.000   P
Y03        17.350   1.000   S
Y06        10.050   1.000   P
Y09         8.460   1.000   P
Y09        16.120   1.000   S
# 2016 12 17 11 40 23.75  11.6557  140.5590   11.20 -2.00  0.00  0.00  0.00         17
Y85        33.870   1.000   S
Y09        24.270   1.000   P
Y07        25.260   1.000   P
Y06        25.260   1.000   P
Y40        26.320   1.000   P
# 2016 12 17 12 54 54.66  11.9467  141.5948   15.00 -2.00  0.00  0.00  0.00         18
Y03         7.370   1.000   P
Y85         7.340   1.000   P
Y85        13.850   1.000   S
Y07         7.330   1.000   P
Y06         7.330   1.000   P
Y09         3.360   1.000   P
# 2016 12 17 12 59 45.55  11.6760  141.6418    6.50 -2.00  0.00  0.00  0.00         19
Y03        10.500   1.000   P
Y85        25.990   1.000   S
Y09        10.470   1.000   P
Y07        10.470   1.000   P
Y06        10.490   1.000   P
Y40         7.890   1.000   P
# 2016 12 17 13 27 56.46  12.3215  141.2497    5.00 -2.00  0.00  0.00  0.00         20
Y03        18.510   1.000   S
Y07        13.370   1.000   P
Y06        16.220   1.000   P
Y09        11.970   1.000   P
# 2016 12 17 15 25 23.11  12.1653  141.4865    5.00 -2.00  0.00  0.00  0.00         21
Y03         7.880   1.000   P
Y03        15.230   1.000   S
Y85         5.910   1.000   P
Y07         7.930   1.000   P
Y40         7.400   1.000   P
Y09         7.950   1.000   P
# 2016 12 17 17 37 39.65  11.8303  141.5813    6.00 -2.00  0.00  0.00  0.00         22
Y03         8.350   1.000   P
Y03        14.650   1.000   S
Y85         8.400   1.000   P
Y07        10.370   1.000   P
Y06        10.350   1.000   P
Y40         9.420   1.000   P
# 2016 12 18  0 20 18.56  12.0710  141.4822    9.40 -2.00  0.00  0.00  0.00         23
Y03        19.420   1.000   S
Y09         5.250   1.000   P
Y09        13.300   1.000   S
Y07        11.030   1.000   P
Y07        11.320   1.000   S
Y06         5.460   1.000   P
Y06        11.030   1.000   S
Y40         3.440   1.000   P
# 2016 12 18  1 10  1.54  11.7467  141.7412   10.10 -2.00  0.00  0.00  0.00         24
Y07         6.460   1.000   P
Y06         7.470   1.000   P
Y06        13.410   1.000   S
Y40         6.460   1.000   P
Y40        10.940   1.000   S
# 2016 12 18  1 30 59.88  11.9427  141.8238   12.60 -2.00  0.00  0.00  0.00         25
Y09         4.110   1.000   P
Y85         7.170   1.000   P
Y07         4.110   1.000   P
Y07        11.920   1.000   S
Y06         5.110   1.000   P
Y06         8.020   1.000   S
# 2016 12 18  3  4  4.25  11.4888  141.6478   13.00 -2.00  0.00  0.00  0.00         26
Y03        11.770   1.000   P
Y03        18.280   1.000   S
Y09         8.810   1.000   P
Y07        17.470   1.000   P
Y07        26.010   1.000   S
Y40         6.810   1.000   P
# 2016 12 18  5 18  1.89  11.8677  139.9850    9.90 -2.00  0.00  0.00  0.00         27
Y09        39.790   1.000   P
Y03        43.720   1.000   S
Y07        34.080   1.000   P
Y40        37.100   1.000   P
# 2016 12 18  8 58 15.81  12.5827  141.5188    9.40 -2.00  0.00  0.00  0.00         28
Y07         9.310   1.000   P
Y03        14.130   1.000   P
Y03        25.450   1.000   S
Y85         8.200   1.000   P
# 2016 12 18 15 12  8.98  12.0653  141.5485   10.00 -2.00  0.00  0.00  0.00         29
Y09         5.040   1.000   P
Y85         6.870   1.000   P
Y07         8.920   1.000   P
Y07         9.570   1.000   S
# 2016 12 18 16 25 34.32  12.0253  141.4863    5.00 -2.00  0.00  0.00  0.00         30
Y03         6.680   1.000   P
Y03        12.460   1.000   S
Y85         8.240   1.000   P
Y07         8.720   1.000   P
Y09         8.970   1.000   P
Y40         7.700   1.000   P
# 2016 12 18 17 32  5.00  12.0673  141.6098   13.30 -2.00  0.00  0.00  0.00         31
Y03         8.000   1.000   P
Y85         7.990   1.000   P
Y07        10.010   1.000   P
Y09         5.000   1.000   P
Y09        12.690   1.000   S
Y06         6.000   1.000   P
Y06        15.550   1.000   S
# 2016 12 18 17 38 23.12  11.9770  141.5965   10.00 -2.00  0.00  0.00  0.00         32
Y03         7.530   1.000   P
Y85         8.910   1.000   P
Y07         6.880   1.000   P
Y40        12.760   1.000   P
Y40        18.070   1.000   S
# 2016 12 18 17 46 47.43  12.0867  141.6322   12.70 -2.00  0.00  0.00  0.00         33
Y03         8.600   1.000   P
Y85         8.420   1.000   P
Y85        13.830   1.000   S
Y06         8.590   1.000   P
Y09         7.630   1.000   P
Y40         8.600   1.000   P
# 2016 12 18 17 56 39.31  12.1890  141.7570   10.00 -2.00  0.00  0.00  0.00         34
Y09         3.800   1.000   P
Y07         1.710   1.000   P
Y07         2.030   1.000   S
Y06         4.680   1.000   P
# 2016 12 18 20 26 24.35  11.6515  141.7327   10.00 -2.00  0.00  0.00  0.00         35
Y03         7.640   1.000   P
Y09         6.680   1.000   P
Y06         7.670   1.000   P
Y40         6.630   1.000   P
Y40         8.570   1.000   S
# 2016 12 18 23 57 44.97  11.4487  141.6737    9.90 -2.00  0.00  0.00  0.00         36
Y03        13.000   1.000   P
Y85        10.010   1.000   P
Y09        10.030   1.000   P
Y07        15.800   1.000   P
Y07        27.480   1.000   S
Y06        12.020   1.000   P
Y06        22.020   1.000   S
Y40         7.040   1.000   P
Y40        11.160   1.000   S
# 2016 12 19  0 13 19.02  11.6280  141.4620   10.80 -2.00  0.00  0.00  0.00         37
Y03         8.070   1.000   P
Y09         7.610   1.000   P
Y85        13.410   1.000   P
Y85        23.530   1.000   S
Y40        10.100   1.000   P
# 2016 12 19  0 35 44.38  12.1318  141.4463   10.00 -2.00  0.00  0.00  0.00         38
Y03         5.610   1.000   P
Y85         4.520   1.000   P
Y07        10.060   1.000   P
Y07        10.200   1.000   S
# 2016 12 19  2 50 58.41  11.7630  142.3372   12.00 -2.00  0.00  0.00  0.00         39
Y40         8.610   1.000   P
Y40         9.540   1.000   S
Y09        14.470   1.000   P
Y09        21.420   1.000   S
Y07        13.980   1.000   P
Y07        16.140   1.000   S
Y06        12.340   1.000   S
# 2016 12 19 11 18 15.66  11.4147  141.7253   10.00 -2.00  0.00  0.00  0.00         40
Y85         9.370   1.000   P
Y09        10.340   1.000   P
Y09        16.060   1.000   S
Y40         6.340   1.000   P
Y40        11.580   1.000   S
Y03         9.440   1.000   P
# 2016 12 19 16 46 53.53  12.9740  142.7632    9.80 -2.00  0.00  0.00  0.00         41
Y03        27.070   1.000   P
Y85        31.500   1.000   P
Y07        41.410   1.000   S
Y09        28.470   1.000   P
Y06        44.270   1.000   S
Y40        30.480   1.000   P
# 2016 12 20  1 51 15.66  11.5550  141.5808   31.10 -2.00  0.00  0.00  0.00         42
Y40         8.330   1.000   P
Y40        15.350   1.000   S
Y09         8.800   1.000   P
Y09        14.580   1.000   S
Y85         9.350   1.000   P
Y07        14.400   1.000   P
Y07        22.590   1.000   S
Y06        12.330   1.000   P
# 2016 12 20  2 31 52.13  11.7183  141.6475   13.50 -2.00  0.00  0.00  0.00         43
Y03         8.880   1.000   P
Y85         8.910   1.000   P
Y07        11.890   1.000   P
Y07        19.140   1.000   S
Y06         8.870   1.000   P
Y06        15.680   1.000   S
Y09         7.870   1.000   P
Y09        12.250   1.000   S
Y40         7.860   1.000   P
Y40        12.150   1.000   S
# 2016 12 20  8  5 44.02  12.3492  141.7348   12.60 -2.00  0.00  0.00  0.00         44
Y85         8.980   1.000   P
Y85        13.740   1.000   S
Y06        10.060   1.000   P
Y40        11.010   1.000   P
Y09         9.990   1.000   P
# 2016 12 20  8 46 16.59  12.3478  141.4690    8.00 -2.00  0.00  0.00  0.00         45
Y03        10.420   1.000   P
Y03        18.330   1.000   S
Y07         7.300   1.000   P
Y07        12.890   1.000   S
Y06        12.410   1.000   P
Y06        22.930   1.000   S
Y40        16.410   1.000   P
Y40        27.660   1.000   S
Y09        11.240   1.000   P
Y09        19.430   1.000   S
# 2016 12 20 10 26 30.40  12.0168  141.4140   12.30 -2.00  0.00  0.00  0.00         46
Y03         4.610   1.000   P
Y03         7.940   1.000   S
Y85         6.630   1.000   P
Y06         7.600   1.000   P
Y09         6.630   1.000   P
Y40         6.630   1.000   P
# 2016 12 20 10 40 22.49  11.6728  141.4412    5.00 -2.00  0.00  0.00  0.00         47
Y09         9.430   1.000   P
Y09        16.860   1.000   S
Y03        22.370   1.000   S
Y85        14.560   1.000   P
Y07        11.490   1.000   P
Y07        16.940   1.000   S
Y06        10.590   1.000   P
Y06        18.410   1.000   S
Y40        12.500   1.000   P
# 2016 12 20 12 15 45.50  12.2427  141.3637   10.00 -2.00  0.00  0.00  0.00         48
Y03         3.560   1.000   P
Y85         1.490   1.000   P
Y85         4.270   1.000   S
Y06         2.490   1.000   P
Y09         2.520   1.000   P
# 2016 12 20 12 19 57.56  12.2603  141.5562   12.80 -2.00  0.00  0.00  0.00         49
Y09        15.080   1.000   S
Y03        10.170   1.000   P
Y03        15.880   1.000   S
Y06         5.430   1.000   P
Y07         4.560   1.000   P
Y07         4.720   1.000   S
# 2016 12 20 14 24 48.66  10.9335  142.0715   11.40 -2.00  0.00  0.00  0.00         50
Y09        27.320   1.000   P
Y09        32.530   1.000   S
Y03        43.840   1.000   S
Y85        30.370   1.000   P
Y07        27.330   1.000   P
Y40        25.360   1.000   S
# 2016 12 20 17 53  8.53  11.5423  141.8962   20.00 -2.00  0.00  0.00  0.00         51
Y85         4.480   1.000   P
Y09        15.460   1.000   S
Y06         8.910   1.000   P
Y06        15.770   1.000   S
Y40         3.470   1.000   P
Y40         5.860   1.000   S
# 2016 12 21  4 26  1.58  12.0703  141.4758   10.00 -2.00  0.00  0.00  0.00         52
Y03         6.410   1.000   P
Y85         6.410   1.000   P
Y07         7.510   1.000   P
Y09         6.450   1.000   P
Y06         6.440   1.000   P
Y06        18.170   1.000   S
Y40         7.370   1.000   P
Y40         9.400   1.000   S
# 2016 12 21  4 47  0.51  11.9383  141.3287   10.00 -2.00  0.00  0.00  0.00         53
Y03         1.690   1.000   P
Y03         2.250   1.000   S
Y85         7.510   1.000   P
Y40         7.440   1.000   P
# 2016 12 21  7 39  9.45  11.8147  141.1793   24.10 -2.00  0.00  0.00  0.00         54
Y03         4.650   1.000   P
Y03         8.360   1.000   S
Y07        14.420   1.000   P
Y07        24.760   1.000   S
Y06        15.500   1.000   P
Y06        27.700   1.000   S
Y09        10.520   1.000   P
Y09        18.770   1.000   S
Y40        15.970   1.000   P
Y40        27.340   1.000   S
# 2016 12 21  8  2 37.10  12.1442  142.0975   10.40 -2.00  0.00  0.00  0.00         55
Y03        10.740   1.000   P
Y03        18.710   1.000   S
Y85        15.640   1.000   P
Y07        14.010   1.000   S
Y06         5.610   1.000   P
Y06         9.790   1.000   S
# 2016 12 21  8 54  3.81  11.7812  141.7040    8.50 -2.00  0.00  0.00  0.00         56
Y03        10.210   1.000   P
Y03        17.860   1.000   S
Y85        10.220   1.000   P
Y07        10.140   1.000   P
Y06        10.180   1.000   P
Y40         7.450   1.000   P
Y40         9.570   1.000   S
# 2016 12 21 13  8  2.66  11.9127  141.6950   90.80 -2.00  0.00  0.00  0.00         57
Y03        16.390   1.000   P
Y85        17.320   1.000   P
Y85        22.760   1.000   S
Y07        15.770   1.000   P
Y09        15.350   1.000   P
Y06        15.370   1.000   P
Y40        16.370   1.000   P
# 2016 12 21 13 57 13.60  12.0317  141.8887   10.00 -2.00  0.00  0.00  0.00         58
Y09         6.350   1.000   P
Y85        11.560   1.000   P
Y85        22.660   1.000   S
Y07         6.390   1.000   P
# 2016 12 21 14 46 49.89  12.2397  141.5612   12.00 -2.00  0.00  0.00  0.00         59
Y03         9.110   1.000   P
Y09        10.160   1.000   P
Y06        11.140   1.000   P
Y40        26.350   1.000   S
# 2016 12 21 16 29 48.41  12.0810  141.5112    5.00 -2.00  0.00  0.00  0.00         60
Y09         7.560   1.000   P
Y03         7.620   1.000   P
Y85         5.590   1.000   P
Y85        13.720   1.000   S
Y07         7.580   1.000   P
Y06         5.600   1.000   P
Y40         7.580   1.000   P
# 2016 12 21 16 59  9.98  12.0645  141.5358    6.50 -2.00  0.00  0.00  0.00         61
Y09         6.010   1.000   P
Y09        13.310   1.000   S
Y85         8.050   1.000   P
Y07         7.010   1.000   P
Y07        13.250   1.000   S
Y06         9.040   1.000   P
Y40        11.020   1.000   P
# 2016 12 21 17  6 52.59  12.1248  141.4000   10.00 -2.00  0.00  0.00  0.00         62
Y03         5.400   1.000   P
Y07        10.020   1.000   P
Y07        10.310   1.000   S
Y09         8.440   1.000   P
# 2016 12 21 18 28 50.63  12.3407  141.6073    7.80 -2.00  0.00  0.00  0.00         63
Y03        11.740   1.000   P
Y03        18.560   1.000   S
Y09        10.490   1.000   P
Y09        18.040   1.000   S
Y06        12.120   1.000   P
Y06        21.510   1.000   S
# 2016 12 21 19 47 56.66  12.2160  141.4090    5.00 -2.00  0.00  0.00  0.00         64
Y85         3.320   1.000   P
Y85         7.100   1.000   S
Y07        10.280   1.000   P
Y06         6.340   1.000   P
Y09         9.840   1.000   P
Y09        19.960   1.000   S
Y40         7.350   1.000   P
Y40        15.820   1.000   S
# 2016 12 22  0 47 36.60  11.8425  141.7407   14.30 -2.00  0.00  0.00  0.00         65
Y09         7.390   1.000   P
Y03        10.370   1.000   P
Y03        16.240   1.000   S
Y85         7.430   1.000   P
Y06         6.470   1.000   P
Y40         7.260   1.000   P
# 2016 12 22  3 32 50.68  12.0133  141.8332   10.00 -2.00  0.00  0.00  0.00         66
Y85         5.310   1.000   P
Y07         7.000   1.000   P
Y07         7.310   1.000   S
Y06         4.350   1.000   P
# 2016 12 22 12 57 40.52  11.7857  141.6772   10.00 -2.00  0.00  0.00  0.00         67
Y03         8.750   1.000   P
Y07        10.800   1.000   P
Y07        10.950   1.000   S
Y06         7.520   1.000   P
# 2016 12 22 13 27 53.94  12.4175  141.3405    5.00 -2.00  0.00  0.00  0.00         68
Y40         2.600   1.000   P
Y40         5.130   1.000   S
Y03        12.170   1.000   P
Y03        22.290   1.000   S
Y09         6.110   1.000   P
Y09        10.420   1.000   S
Y85         1.970   1.000   P
Y07        10.550   1.000   P
Y07        18.660   1.000   S
Y06         5.230   1.000   P
Y06         9.770   1.000   S
# 2016 12 22 13 45  2.32  11.6908  141.9265   12.00 -2.00  0.00  0.00  0.00         69
Y40         3.350   1.000   P
Y09         7.030   1.000   P
Y06         6.180   1.000   P
Y06        10.680   1.000   S
# 2016 12 22 14  5 33.15   9.9175  143.1575   10.00 -2.00  0.00  0.00  0.00         70
Y03        51.500   1.000   P
Y85        52.840   1.000   P
Y07        51.510   1.000   P
Y06        71.760   1.000   S
Y40        70.770   1.000   S
# 2016 12 22 17 17 27.43  12.0048  141.8515   16.40 -2.00  0.00  0.00  0.00         71
Y09         4.590   1.000   P
Y07         5.450   1.000   P
Y07         5.640   1.000   S
Y06         3.570   1.000   P
Y40         3.600   1.000   P
# 2016 12 23  5 50 15.98  11.8772  141.4582   10.00 -2.00  0.00  0.00  0.00         72
Y03         5.370   1.000   P
Y07         8.530   1.000   P
Y07        17.530   1.000   S
Y09         4.270   1.000   P
Y09        10.030   1.000   S
# 2016 12 23 14  6 52.55  11.8978  141.8310   88.00 -2.00  0.00  0.00  0.00         73
Y09        14.410   1.000   P
Y03        17.450   1.000   P
Y03        28.470   1.000   S
Y85        14.460   1.000   P
Y07        15.470   1.000   P
Y06        14.490   1.000   P
Y40        14.490   1.000   P
# 2016 12 23 14 38 45.92  12.0583  141.6368   11.90 -2.00  0.00  0.00  0.00         74
Y09         5.940   1.000   P
Y09         7.440   1.000   S
Y03         7.460   1.000   P
Y03        10.800   1.000   S
Y07         5.020   1.000   P
Y07         5.130   1.000   S
Y06         9.880   1.000   P
Y06        13.240   1.000   S
Y40         7.420   1.000   P
Y40         8.550   1.000   S
